{"type": "FeatureCollection", "name": "eco_hotel_metrotaipei", "features": [{"type": "Feature", "geometry": {"type": "Point", "coordinates": [121.6062917, 25.0520254]}, "properties": {"name": "台北六福萬怡酒店", "address": "臺北市南港區忠孝東路七段359號7至30樓", "phone": "(02)66156565#5000", "grade": "銀級", "city": "臺北市", "district": "南港區"}}, {"type": "Feature", "geometry": {"type": "Point", "coordinates": [121.5673934, 25.038696]}, "properties": {"name": "台北艾麗酒店", "address": "臺北市信義區松高路18號", "phone": "(02)66318031", "grade": "金級", "city": "臺北市", "district": "信義區"}}, {"type": "Feature", "geometry": {"type": "Point", "coordinates": [121.5362346, 25.0133643]}, "properties": {"name": "捷絲旅臺大尊賢館", "address": "臺北市大安區羅斯福路四段83號1-10樓", "phone": "(02)77355088", "grade": "銀級", "city": "臺北市", "district": "大安區"}}, {"type": "Feature", "geometry": {"type": "Point", "coordinates": [121.4627243, 25.0117403]}, "properties": {"name": "板橋凱撒大飯店", "address": "新北市板橋區縣民大道二段8號", "phone": "(02)29583000#7701", "grade": "金級", "city": "新北市", "district": "板橋區"}}, {"type": "Feature", "geometry": {"type": "Point", "coordinates": [121.5953242, 25.2020308]}, "properties": {"name": "陽明山天籟渡假酒店", "address": "新北市金山區名流路1之6號、1之7號、1之9號、1之9號5樓及1之9號5樓之1至之8", "phone": "(02)24080400#1700", "grade": "銀級", "city": "新北市", "district": "金山區"}}, {"type": "Feature", "geometry": {"type": "Point", "coordinates": [121.8457027, 25.1072814]}, "properties": {"name": "神隱國度民宿", "address": "新北市瑞芳區崙頂路90號", "phone": "(09)05788650", "grade": "銅級", "city": "新北市", "district": "瑞芳區"}}, {"type": "Feature", "geometry": {"type": "Point", "coordinates": [121.9251912, 25.0531773]}, "properties": {"name": "海霞您的家", "address": "新北市貢寮區仁里里14鄰仁愛路38號", "phone": "(09)35204895", "grade": "銅級", "city": "新北市", "district": "貢寮區"}}, {"type": "Feature", "geometry": {"type": "Point", "coordinates": [121.442423, 25.170282]}, "properties": {"name": "旅行邦尼", "address": "新北市淡水區中山路87巷7號", "phone": "(09)28824850", "grade": "銅級", "city": "新北市", "district": "淡水區"}}, {"type": "Feature", "geometry": {"type": "Point", "coordinates": [121.5985799, 25.0041768]}, "properties": {"name": "海灣假日酒店", "address": "新北市深坑區北深路3段265號", "phone": "(02)77035880", "grade": "銀級", "city": "新北市", "district": "深坑區"}}, {"type": "Feature", "geometry": {"type": "Point", "coordinates": [121.4296176, 25.1593548]}, "properties": {"name": "八里福朋喜來登酒店", "address": "新北市八里區觀海大道8號", "phone": "(02)26192777#2602", "grade": "銀級", "city": "新北市", "district": "八里區"}}, {"type": "Feature", "geometry": {"type": "Point", "coordinates": [121.6900049, 25.2044534]}, "properties": {"name": "薆悅酒店野柳渡假館一館", "address": "新北市萬里區野柳里港東路162號之2", "phone": "(02)77035770#623", "grade": "銅級", "city": "新北市", "district": "萬里區"}}, {"type": "Feature", "geometry": {"type": "Point", "coordinates": [121.4390157, 25.17168]}, "properties": {"name": "台北旅人國際青年旅館", "address": "新北市淡水區三民街22、22之1、22之2、22之3、22之4號", "phone": "(02)26258222", "grade": "銅級", "city": "新北市", "district": "淡水區"}}, {"type": "Feature", "geometry": {"type": "Point", "coordinates": [121.5592994, 25.0804289]}, "properties": {"name": "台北萬豪酒店", "address": "臺北市中山區樂群二路199號", "phone": "(02)21757999#1701", "grade": "銀級", "city": "臺北市", "district": "中山區"}}, {"type": "Feature", "geometry": {"type": "Point", "coordinates": [121.6147949, 25.0598044]}, "properties": {"name": "南港老爺行旅", "address": "臺北市南港區經貿二路196號、196號10樓至20樓", "phone": "(02)77500588", "grade": "銀級", "city": "臺北市", "district": "南港區"}}, {"type": "Feature", "geometry": {"type": "Point", "coordinates": [121.530377, 25.0531131]}, "properties": {"name": "美侖商旅", "address": "臺北市中山區吉林路49號1至8樓", "phone": "(02)25313535#878", "grade": "銀級", "city": "臺北市", "district": "中山區"}}, {"type": "Feature", "geometry": {"type": "Point", "coordinates": [121.4151708, 25.1824319]}, "properties": {"name": "福容大飯店 淡水漁人碼頭", "address": "新北市淡水區觀海路83號", "phone": "(02)2805 9958#8178", "grade": "金級", "city": "新北市", "district": "淡水區"}}, {"type": "Feature", "geometry": {"type": "Point", "coordinates": [121.5244775, 25.063034]}, "properties": {"name": "台北中山雅樂軒酒店", "address": "臺北市中山區雙城街1號", "phone": "(02)77439900", "grade": "銀級", "city": "臺北市", "district": "中山區"}}, {"type": "Feature", "geometry": {"type": "Point", "coordinates": [121.5433012, 25.0374704]}, "properties": {"name": "福華大飯店", "address": "臺北市大安區仁愛路三段160號", "phone": "(02)27002323#2411", "grade": "銀級", "city": "臺北市", "district": "大安區"}}, {"type": "Feature", "geometry": {"type": "Point", "coordinates": [121.5055703, 25.0451667]}, "properties": {"name": "台北西門町意舍酒店", "address": "臺北市萬華區武昌街2段77號5樓至10樓", "phone": "(02)23755111#2100", "grade": "銀級", "city": "臺北市", "district": "萬華區"}}, {"type": "Feature", "geometry": {"type": "Point", "coordinates": [121.5333295, 25.0488724]}, "properties": {"name": "長榮桂冠酒店(台北)", "address": "臺北市中山區松江路63號", "phone": "(02)25019988#2701", "grade": "金級", "city": "臺北市", "district": "中山區"}}, {"type": "Feature", "geometry": {"type": "Point", "coordinates": [121.487597, 25.0773891]}, "properties": {"name": "捷絲旅台北三重館", "address": "新北市三重區三和路四段107-1號", "phone": "(02)22806111#8304", "grade": "銀級", "city": "新北市", "district": "三重區"}}, {"type": "Feature", "geometry": {"type": "Point", "coordinates": [121.5202958, 25.0521949]}, "properties": {"name": "台北君品大酒店", "address": "臺北市大同區承德路1段3號1樓、5樓~16樓及地下1樓、地下3樓", "phone": "(02)21819999#3142", "grade": "金級", "city": "臺北市", "district": "大同區"}}, {"type": "Feature", "geometry": {"type": "Point", "coordinates": [121.3608451, 25.0661946]}, "properties": {"name": "亞昕福朋喜來登酒店", "address": "新北市林口區文化三路一段1號、1號2樓、1號3樓", "phone": "(02)77276961", "grade": "銀級", "city": "新北市", "district": "林口區"}}, {"type": "Feature", "geometry": {"type": "Point", "coordinates": [121.5230059, 25.0557323]}, "properties": {"name": "台北中山意舍酒店", "address": "臺北市中山區中山北路二段57之1號1至8樓", "phone": "(02)25652828", "grade": "銀級", "city": "臺北市", "district": "中山區"}}, {"type": "Feature", "geometry": {"type": "Point", "coordinates": [121.5233276, 25.0441592]}, "properties": {"name": "台北時代寓所", "address": "臺北市中正區林森南路7號1至14樓，7-1號1樓", "phone": "(02)77521801", "grade": "金級", "city": "臺北市", "district": "中正區"}}, {"type": "Feature", "geometry": {"type": "Point", "coordinates": [121.5278139, 25.0785832]}, "properties": {"name": "圓山大飯店", "address": "臺北市中山區中山北路4段1巷1號", "phone": "(02)28861818#1007", "grade": "銀級", "city": "臺北市", "district": "中山區"}}, {"type": "Feature", "geometry": {"type": "Point", "coordinates": [121.5652303, 25.0413679]}, "properties": {"name": "台北W飯店", "address": "臺北市信義區忠孝東路五段10號", "phone": "(02)77038765", "grade": "銀級", "city": "臺北市", "district": "信義區"}}, {"type": "Feature", "geometry": {"type": "Point", "coordinates": [121.5326451, 25.0516406]}, "properties": {"name": "寒居酒店", "address": "臺北市中山區松江路116號1樓至9樓", "phone": "(02)66008000#8886", "grade": "金級", "city": "臺北市", "district": "中山區"}}, {"type": "Feature", "geometry": {"type": "Point", "coordinates": [121.5290463, 25.0931135]}, "properties": {"name": "台北士林萬麗酒店", "address": "臺北市士林區中山北路五段470巷8號", "phone": "(02)88612389", "grade": "銀級", "city": "臺北市", "district": "士林區"}}, {"type": "Feature", "geometry": {"type": "Point", "coordinates": [121.52259395, 25.05141282]}, "properties": {"name": "台北中山九昱希爾頓逸林酒店", "address": "臺北市中山區中山北路一段121巷1之1號, 121巷1號1樓至14樓", "phone": "(02)66253281", "grade": "銅級", "city": "臺北市", "district": "中山區"}}, {"type": "Feature", "geometry": {"type": "Point", "coordinates": [121.51508107, 25.13777946]}, "properties": {"name": "北投麗禧溫泉酒店", "address": "臺北市北投區幽雅路30號", "phone": "(02)28967799#738", "grade": "金級", "city": "臺北市", "district": "北投區"}}, {"type": "Feature", "geometry": {"type": "Point", "coordinates": [121.46276335, 25.01126104]}, "properties": {"name": "趣淘漫旅-台北", "address": "新北市板橋區中山路1段139號(1至2層)、139號4樓至20樓", "phone": "(02)29583000#7701", "grade": "金級", "city": "新北市", "district": "板橋區"}}, {"type": "Feature", "geometry": {"type": "Point", "coordinates": [121.4624318, 25.01141762]}, "properties": {"name": "台北新板希爾頓酒店", "address": "新北市板橋區民權路88號、88號（2至31樓）90號", "phone": "(02)29583000#7702", "grade": "金級", "city": "新北市", "district": "板橋區"}}, {"type": "Feature", "geometry": {"type": "Point", "coordinates": [121.631994, 25.05545154]}, "properties": {"name": "富信大飯店", "address": "新北市汐止區大同路一段152號", "phone": "(02)26416422#5112", "grade": "金級", "city": "新北市", "district": "汐止區"}}, {"type": "Feature", "geometry": {"type": "Point", "coordinates": [121.503824, 25.13765674]}, "properties": {"name": "北投老爺酒店", "address": "臺北市北投區中和街2號", "phone": "(02)28966966#8878", "grade": "金級", "city": "臺北市", "district": "北投區"}}, {"type": "Feature", "geometry": {"type": "Point", "coordinates": [121.60032904, 25.00421502]}, "properties": {"name": "福容大飯店 台北二館", "address": "新北市深坑區北深路三段236號", "phone": "(02)26620088#186", "grade": "金級", "city": "新北市", "district": "深坑區"}}, {"type": "Feature", "geometry": {"type": "Point", "coordinates": [121.5493234, 25.0264311]}, "properties": {"name": "台北遠東香格里拉", "address": "臺北市大安區敦化南路二段201號", "phone": "(02)23788888#6608", "grade": "銅級", "city": "臺北市", "district": "大安區"}}, {"type": "Feature", "geometry": {"type": "Point", "coordinates": [121.5255369, 25.06470274]}, "properties": {"name": "九昱晴美", "address": "臺北市中山區林森北路568號2樓至13樓，3樓之1、2、3、5、6至12樓之1、2、3、5、6，13樓之1", "phone": "(02)66080807#105", "grade": "銅級", "city": "臺北市", "district": "中山區"}}, {"type": "Feature", "geometry": {"type": "Point", "coordinates": [121.5343264, 25.02366782]}, "properties": {"name": "福華國際文教會館", "address": "臺北市大安區新生南路3段30號(住宿棟1樓及5樓至14樓)", "phone": "(02)77122323#2340", "grade": "銀級", "city": "臺北市", "district": "大安區"}}, {"type": "Feature", "geometry": {"type": "Point", "coordinates": [121.5805022, 25.04930012]}, "properties": {"name": "台北松山意舍酒店", "address": "臺北市南港區市民大道7段8號17樓至21樓", "phone": "(02)26532828#2100", "grade": "銀級", "city": "臺北市", "district": "南港區"}}, {"type": "Feature", "geometry": {"type": "Point", "coordinates": [121.5229496, 25.05370696]}, "properties": {"name": "老爺大酒店", "address": "臺北市中山區中山北路2段37-1號", "phone": "(02)25423299#359", "grade": "銅級", "city": "臺北市", "district": "中山區"}}, {"type": "Feature", "geometry": {"type": "Point", "coordinates": [121.49989244, 25.03335634]}, "properties": {"name": "凱達大飯店", "address": "臺北市萬華區艋舺大道167號1-26樓", "phone": "(02)23836789#6321", "grade": "金級", "city": "臺北市", "district": "萬華區"}}, {"type": "Feature", "geometry": {"type": "Point", "coordinates": [121.5095061, 25.04490466]}, "properties": {"name": "捷絲旅西門町店", "address": "臺北市中正區中華路一段41號5樓至9樓", "phone": "(02)25215000", "grade": "銅級", "city": "臺北市", "district": "中正區"}}, {"type": "Feature", "geometry": {"type": "Point", "coordinates": [121.4297257, 25.17659347]}, "properties": {"name": "將捷金鬱金香酒店", "address": "新北市淡水區中正路1段2之1號(A區地上3至6層、B區地上1至5層、C區地下3層至地上3層)", "phone": "(02)26218555#2913", "grade": "金級", "city": "新北市", "district": "淡水區"}}, {"type": "Feature", "geometry": {"type": "Point", "coordinates": [121.5183769, 25.0463736]}, "properties": {"name": "天成大飯店", "address": "臺北市中正區忠孝西路一段43號", "phone": "(02)23118905#3705", "grade": "銀級", "city": "臺北市", "district": "中正區"}}, {"type": "Feature", "geometry": {"type": "Point", "coordinates": [121.5098341, 25.04536176]}, "properties": {"name": "台糖台北會館", "address": "臺北市中正區中華路一段39號3至5樓", "phone": "(02)23885522#5001", "grade": "銅級", "city": "臺北市", "district": "中正區"}}, {"type": "Feature", "geometry": {"type": "Point", "coordinates": [121.5098341, 25.04536176]}, "properties": {"name": "台糖台北會館", "address": "臺北市中正區中華路一段39號3至5樓", "phone": "(02)23885522#5001", "grade": "銅級", "city": "臺北市", "district": "中正區"}}, {"type": "Feature", "geometry": {"type": "Point", "coordinates": [121.9439558, 25.01838298]}, "properties": {"name": "福容大飯店　福隆", "address": "新北市貢寮區福隆里福隆街41號", "phone": "(02)24992381", "grade": "金級", "city": "新北市", "district": "貢寮區"}}, {"type": "Feature", "geometry": {"type": "Point", "coordinates": [121.57778557, 25.07738056]}, "properties": {"name": "凱旋酒店", "address": "臺北市內湖區江南街55號3樓至9樓", "phone": "(02)87527888#6203", "grade": "銀級", "city": "臺北市", "district": "內湖區"}}, {"type": "Feature", "geometry": {"type": "Point", "coordinates": [121.5069911, 25.13500876]}, "properties": {"name": "大地酒店", "address": "臺北市北投區奇岩路1號", "phone": "(02)28931221#1003", "grade": "金級", "city": "臺北市", "district": "北投區"}}, {"type": "Feature", "geometry": {"type": "Point", "coordinates": [121.469401, 25.017678]}, "properties": {"name": "傑仕堡有氧酒店", "address": "新北市板橋區縣民大道2段275號、275號2至17樓、277號2樓", "phone": "(02)77273000#54083", "grade": "金級", "city": "新北市", "district": "板橋區"}}, {"type": "Feature", "geometry": {"type": "Point", "coordinates": [121.50681761, 25.03637048]}, "properties": {"name": "台北花園大酒店", "address": "臺北市中正區中華路2段1號", "phone": "(02)23143300#3151", "grade": "銀級", "city": "臺北市", "district": "中正區"}}, {"type": "Feature", "geometry": {"type": "Point", "coordinates": [121.52995, 25.062829]}, "properties": {"name": "亞都麗緻大飯店", "address": "臺北市中山區民權東路2段41號", "phone": "0277352360", "grade": "金級", "city": "臺北市", "district": "中山區"}}]}