{"type":"FeatureCollection","name":"recycling_station_approximate_points","metadata":{"coordinate_note":"行政區級近似座標：由行政區中心點加固定偏移產生，非實際門牌座標。"},"features":[{"type":"Feature","geometry":{"type":"Point","coordinates":[121.571181,25.027313]},"properties":{"city":"臺北市","district":"信義區","address":"臺北市信義區松德路89號","coordinate_accuracy":"行政區級近似座標"}},{"type":"Feature","geometry":{"type":"Point","coordinates":[121.498989,25.03063]},"properties":{"city":"臺北市","district":"萬華區","address":"臺北市萬華區西藏路127號","coordinate_accuracy":"行政區級近似座標"}},{"type":"Feature","geometry":{"type":"Point","coordinates":[121.527108,25.133116]},"properties":{"city":"臺北市","district":"士林區","address":"臺北市士林區中正路458號","coordinate_accuracy":"行政區級近似座標"}},{"type":"Feature","geometry":{"type":"Point","coordinates":[121.592434,25.082504]},"properties":{"city":"臺北市","district":"內湖區","address":"臺北市內湖區內湖路一段91巷102弄16號","coordinate_accuracy":"行政區級近似座標"}},{"type":"Feature","geometry":{"type":"Point","coordinates":[121.588654,25.086462]},"properties":{"city":"臺北市","district":"內湖區","address":"臺北市內湖區內湖路一段91巷102弄16號","coordinate_accuracy":"行政區級近似座標"}},{"type":"Feature","geometry":{"type":"Point","coordinates":[121.559426,25.058933]},"properties":{"city":"臺北市","district":"松山區","address":"臺北市松山區健康路329號","coordinate_accuracy":"行政區級近似座標"}},{"type":"Feature","geometry":{"type":"Point","coordinates":[121.559977,25.057745]},"properties":{"city":"臺北市","district":"松山區","address":"臺北市松山區健康路329號","coordinate_accuracy":"行政區級近似座標"}},{"type":"Feature","geometry":{"type":"Point","coordinates":[121.557881,25.062173]},"properties":{"city":"臺北市","district":"松山區","address":"臺北市松山區健康路329號","coordinate_accuracy":"行政區級近似座標"}},{"type":"Feature","geometry":{"type":"Point","coordinates":[121.556516,25.062152]},"properties":{"city":"臺北市","district":"松山區","address":"臺北市松山區三民路43巷11號","coordinate_accuracy":"行政區級近似座標"}},{"type":"Feature","geometry":{"type":"Point","coordinates":[121.559241,25.057281]},"properties":{"city":"臺北市","district":"松山區","address":"臺北市松山區三民路43巷13號","coordinate_accuracy":"行政區級近似座標"}},{"type":"Feature","geometry":{"type":"Point","coordinates":[121.562283,25.061062]},"properties":{"city":"臺北市","district":"松山區","address":"臺北市松山區三民路35巷1號","coordinate_accuracy":"行政區級近似座標"}},{"type":"Feature","geometry":{"type":"Point","coordinates":[121.554799,25.060752]},"properties":{"city":"臺北市","district":"松山區","address":"臺北市松山區三民路29巷1號","coordinate_accuracy":"行政區級近似座標"}},{"type":"Feature","geometry":{"type":"Point","coordinates":[121.554351,25.060387]},"properties":{"city":"臺北市","district":"松山區","address":"臺北市松山區三民路29巷13號","coordinate_accuracy":"行政區級近似座標"}},{"type":"Feature","geometry":{"type":"Point","coordinates":[121.557873,25.056369]},"properties":{"city":"臺北市","district":"松山區","address":"臺北市松山區延壽街330巷17弄2號","coordinate_accuracy":"行政區級近似座標"}},{"type":"Feature","geometry":{"type":"Point","coordinates":[121.556463,25.063401]},"properties":{"city":"臺北市","district":"松山區","address":"臺北市松山區延壽街330巷17弄2號","coordinate_accuracy":"行政區級近似座標"}},{"type":"Feature","geometry":{"type":"Point","coordinates":[121.554592,25.062807]},"properties":{"city":"臺北市","district":"松山區","address":"臺北市松山區健康路185巷12號","coordinate_accuracy":"行政區級近似座標"}},{"type":"Feature","geometry":{"type":"Point","coordinates":[121.56036,25.064661]},"properties":{"city":"臺北市","district":"松山區","address":"臺北市松山區健康路185巷20號","coordinate_accuracy":"行政區級近似座標"}},{"type":"Feature","geometry":{"type":"Point","coordinates":[121.563668,25.060265]},"properties":{"city":"臺北市","district":"松山區","address":"臺北市松山區健康路185巷16號","coordinate_accuracy":"行政區級近似座標"}},{"type":"Feature","geometry":{"type":"Point","coordinates":[121.553412,25.059717]},"properties":{"city":"臺北市","district":"松山區","address":"臺北市松山區健康路185巷22號","coordinate_accuracy":"行政區級近似座標"}},{"type":"Feature","geometry":{"type":"Point","coordinates":[121.570728,25.030154]},"properties":{"city":"臺北市","district":"信義區","address":"臺北市信義區忠孝東路5段365號","coordinate_accuracy":"行政區級近似座標"}},{"type":"Feature","geometry":{"type":"Point","coordinates":[121.569781,25.029862]},"properties":{"city":"臺北市","district":"信義區","address":"臺北市信義區忠孝東路5段365號","coordinate_accuracy":"行政區級近似座標"}},{"type":"Feature","geometry":{"type":"Point","coordinates":[121.519715,25.027727]},"properties":{"city":"臺北市","district":"中正區","address":"臺北市中正區水源路39號","coordinate_accuracy":"行政區級近似座標"}},{"type":"Feature","geometry":{"type":"Point","coordinates":[121.519595,25.031689]},"properties":{"city":"臺北市","district":"中正區","address":"臺北市中正區水源路45號","coordinate_accuracy":"行政區級近似座標"}},{"type":"Feature","geometry":{"type":"Point","coordinates":[121.57113,25.031862]},"properties":{"city":"臺北市","district":"信義區","address":"臺北市信義區松仁路242~266號","coordinate_accuracy":"行政區級近似座標"}},{"type":"Feature","geometry":{"type":"Point","coordinates":[121.573072,25.032919]},"properties":{"city":"臺北市","district":"信義區","address":"臺北市信義區松仁路242~266號","coordinate_accuracy":"行政區級近似座標"}},{"type":"Feature","geometry":{"type":"Point","coordinates":[121.57203,25.023745]},"properties":{"city":"臺北市","district":"信義區","address":"臺北市信義區永吉路302號","coordinate_accuracy":"行政區級近似座標"}},{"type":"Feature","geometry":{"type":"Point","coordinates":[121.59299,25.079916]},"properties":{"city":"臺北市","district":"內湖區","address":"臺北市內湖區民權東路6段123巷34弄9號","coordinate_accuracy":"行政區級近似座標"}},{"type":"Feature","geometry":{"type":"Point","coordinates":[121.500773,25.029148]},"properties":{"city":"臺北市","district":"萬華區","address":"臺北市萬華區西藏路127號","coordinate_accuracy":"行政區級近似座標"}},{"type":"Feature","geometry":{"type":"Point","coordinates":[121.498461,25.03223]},"properties":{"city":"臺北市","district":"萬華區","address":"臺北市萬華區西藏路127號","coordinate_accuracy":"行政區級近似座標"}},{"type":"Feature","geometry":{"type":"Point","coordinates":[121.496863,25.032923]},"properties":{"city":"臺北市","district":"萬華區","address":"臺北市萬華區西藏路127號","coordinate_accuracy":"行政區級近似座標"}},{"type":"Feature","geometry":{"type":"Point","coordinates":[121.494123,25.028173]},"properties":{"city":"臺北市","district":"萬華區","address":"臺北市萬華區西藏路127號","coordinate_accuracy":"行政區級近似座標"}},{"type":"Feature","geometry":{"type":"Point","coordinates":[121.547082,25.069894]},"properties":{"city":"臺北市","district":"中山區","address":"臺北市中山區長安西路16號","coordinate_accuracy":"行政區級近似座標"}},{"type":"Feature","geometry":{"type":"Point","coordinates":[121.54468,25.025079]},"properties":{"city":"臺北市","district":"大安區","address":"臺北市大安區和平東路1段115號","coordinate_accuracy":"行政區級近似座標"}},{"type":"Feature","geometry":{"type":"Point","coordinates":[121.590388,25.079452]},"properties":{"city":"臺北市","district":"內湖區","address":"臺北市內湖區康寧路一段290號","coordinate_accuracy":"行政區級近似座標"}},{"type":"Feature","geometry":{"type":"Point","coordinates":[121.592922,25.079709]},"properties":{"city":"臺北市","district":"內湖區","address":"臺北市內湖區康寧路一段290號","coordinate_accuracy":"行政區級近似座標"}},{"type":"Feature","geometry":{"type":"Point","coordinates":[121.574705,24.985977]},"properties":{"city":"臺北市","district":"文山區","address":"臺北市文山區木柵路二段109巷100弄10號","coordinate_accuracy":"行政區級近似座標"}},{"type":"Feature","geometry":{"type":"Point","coordinates":[121.573485,24.985694]},"properties":{"city":"臺北市","district":"文山區","address":"臺北市文山區木柵路二段109巷100弄10號","coordinate_accuracy":"行政區級近似座標"}},{"type":"Feature","geometry":{"type":"Point","coordinates":[121.564247,25.061977]},"properties":{"city":"臺北市","district":"松山區","address":"臺北市松山區敦化北路199巷8-4號1樓","coordinate_accuracy":"行政區級近似座標"}},{"type":"Feature","geometry":{"type":"Point","coordinates":[121.544098,25.065996]},"properties":{"city":"臺北市","district":"中山區","address":"臺北市中山區中山北路二段59巷45號","coordinate_accuracy":"行政區級近似座標"}},{"type":"Feature","geometry":{"type":"Point","coordinates":[121.54551,25.065793]},"properties":{"city":"臺北市","district":"中山區","address":"臺北市中山區中山北路二段59巷45號","coordinate_accuracy":"行政區級近似座標"}},{"type":"Feature","geometry":{"type":"Point","coordinates":[121.575423,25.025334]},"properties":{"city":"臺北市","district":"信義區","address":"臺北市信義區松德路65號","coordinate_accuracy":"行政區級近似座標"}},{"type":"Feature","geometry":{"type":"Point","coordinates":[121.617172,25.037416]},"properties":{"city":"臺北市","district":"南港區","address":"臺北市南港區中坡南路49巷1-7號","coordinate_accuracy":"行政區級近似座標"}},{"type":"Feature","geometry":{"type":"Point","coordinates":[121.517743,25.028012]},"properties":{"city":"臺北市","district":"中正區","address":"臺北市中正區羅斯福路四段68號","coordinate_accuracy":"行政區級近似座標"}},{"type":"Feature","geometry":{"type":"Point","coordinates":[121.569275,25.02474]},"properties":{"city":"臺北市","district":"信義區","address":"臺北市信義區忠孝東路五段800號","coordinate_accuracy":"行政區級近似座標"}},{"type":"Feature","geometry":{"type":"Point","coordinates":[121.516314,25.03117]},"properties":{"city":"臺北市","district":"中正區","address":"臺北市中正區忠孝東路一段45號","coordinate_accuracy":"行政區級近似座標"}},{"type":"Feature","geometry":{"type":"Point","coordinates":[121.54403,25.028464]},"properties":{"city":"臺北市","district":"大安區","address":"臺北市大安區信義路三段7號","coordinate_accuracy":"行政區級近似座標"}},{"type":"Feature","geometry":{"type":"Point","coordinates":[121.541722,25.023726]},"properties":{"city":"臺北市","district":"大安區","address":"臺北市大安區麗水街34號","coordinate_accuracy":"行政區級近似座標"}},{"type":"Feature","geometry":{"type":"Point","coordinates":[121.573172,25.022652]},"properties":{"city":"臺北市","district":"信義區","address":"臺北市信義區松勤街140巷6號","coordinate_accuracy":"行政區級近似座標"}},{"type":"Feature","geometry":{"type":"Point","coordinates":[121.548567,25.066556]},"properties":{"city":"臺北市","district":"中山區","address":"臺北市中山區民權東路二段69號","coordinate_accuracy":"行政區級近似座標"}},{"type":"Feature","geometry":{"type":"Point","coordinates":[121.546768,25.02862]},"properties":{"city":"臺北市","district":"大安區","address":"臺北市大安區師大路105巷18號","coordinate_accuracy":"行政區級近似座標"}},{"type":"Feature","geometry":{"type":"Point","coordinates":[121.542098,25.022448]},"properties":{"city":"臺北市","district":"大安區","address":"臺北市大安區師大路105巷18號","coordinate_accuracy":"行政區級近似座標"}},{"type":"Feature","geometry":{"type":"Point","coordinates":[121.576616,25.025857]},"properties":{"city":"臺北市","district":"信義區","address":"臺北市信義區基隆路1段176號","coordinate_accuracy":"行政區級近似座標"}},{"type":"Feature","geometry":{"type":"Point","coordinates":[121.519888,25.023526]},"properties":{"city":"臺北市","district":"中正區","address":"臺北市中正區忠孝東路2段24號","coordinate_accuracy":"行政區級近似座標"}},{"type":"Feature","geometry":{"type":"Point","coordinates":[121.543429,25.021924]},"properties":{"city":"臺北市","district":"大安區","address":"臺北市大安區仁愛路4段232號","coordinate_accuracy":"行政區級近似座標"}},{"type":"Feature","geometry":{"type":"Point","coordinates":[121.513258,25.065289]},"properties":{"city":"臺北市","district":"大同區","address":"臺北市大同區太原路155號","coordinate_accuracy":"行政區級近似座標"}},{"type":"Feature","geometry":{"type":"Point","coordinates":[121.541721,25.068495]},"properties":{"city":"臺北市","district":"中山區","address":"臺北市中山區建國北路3段55號","coordinate_accuracy":"行政區級近似座標"}},{"type":"Feature","geometry":{"type":"Point","coordinates":[121.548588,25.071878]},"properties":{"city":"臺北市","district":"中山區","address":"臺北市中山區建國北路3段55號","coordinate_accuracy":"行政區級近似座標"}},{"type":"Feature","geometry":{"type":"Point","coordinates":[121.52169,25.02517]},"properties":{"city":"臺北市","district":"中正區","address":"臺北市中正區青島東路4號","coordinate_accuracy":"行政區級近似座標"}},{"type":"Feature","geometry":{"type":"Point","coordinates":[121.52256,25.033144]},"properties":{"city":"臺北市","district":"中正區","address":"臺北市中正區青島東路5號3樓","coordinate_accuracy":"行政區級近似座標"}},{"type":"Feature","geometry":{"type":"Point","coordinates":[121.523074,25.035643]},"properties":{"city":"臺北市","district":"中正區","address":"臺北市中正區青島東路5號3樓","coordinate_accuracy":"行政區級近似座標"}},{"type":"Feature","geometry":{"type":"Point","coordinates":[121.574937,24.984249]},"properties":{"city":"臺北市","district":"文山區","address":"臺北市文山區忠順街一段9巷22弄2號","coordinate_accuracy":"行政區級近似座標"}},{"type":"Feature","geometry":{"type":"Point","coordinates":[121.539924,25.026689]},"properties":{"city":"臺北市","district":"大安區","address":"臺北市大安區信義路二段132號到142號","coordinate_accuracy":"行政區級近似座標"}},{"type":"Feature","geometry":{"type":"Point","coordinates":[121.542114,25.022085]},"properties":{"city":"臺北市","district":"大安區","address":"臺北市大安區信義路二段132號到142號","coordinate_accuracy":"行政區級近似座標"}},{"type":"Feature","geometry":{"type":"Point","coordinates":[121.572682,25.02322]},"properties":{"city":"臺北市","district":"信義區","address":"臺北市信義區信義路五段150巷459號","coordinate_accuracy":"行政區級近似座標"}},{"type":"Feature","geometry":{"type":"Point","coordinates":[121.57087,25.023714]},"properties":{"city":"臺北市","district":"信義區","address":"臺北市信義區光復南路547號","coordinate_accuracy":"行政區級近似座標"}},{"type":"Feature","geometry":{"type":"Point","coordinates":[121.56533,25.031125]},"properties":{"city":"臺北市","district":"信義區","address":"臺北市信義區松平路126號","coordinate_accuracy":"行政區級近似座標"}},{"type":"Feature","geometry":{"type":"Point","coordinates":[121.584625,25.082154]},"properties":{"city":"臺北市","district":"內湖區","address":"臺北市內湖區五分街72巷1號","coordinate_accuracy":"行政區級近似座標"}},{"type":"Feature","geometry":{"type":"Point","coordinates":[121.59659,25.087562]},"properties":{"city":"臺北市","district":"內湖區","address":"臺北市內湖區五分街72巷1號","coordinate_accuracy":"行政區級近似座標"}},{"type":"Feature","geometry":{"type":"Point","coordinates":[121.548102,25.073061]},"properties":{"city":"臺北市","district":"中山區","address":"臺北市中山區中山北路一段83巷32號","coordinate_accuracy":"行政區級近似座標"}},{"type":"Feature","geometry":{"type":"Point","coordinates":[121.544145,25.073535]},"properties":{"city":"臺北市","district":"中山區","address":"臺北市中山區中山北路一段83巷32號","coordinate_accuracy":"行政區級近似座標"}},{"type":"Feature","geometry":{"type":"Point","coordinates":[121.597686,25.083871]},"properties":{"city":"臺北市","district":"內湖區","address":"臺北市內湖區安康路28號","coordinate_accuracy":"行政區級近似座標"}},{"type":"Feature","geometry":{"type":"Point","coordinates":[121.561324,25.05533]},"properties":{"city":"臺北市","district":"松山區","address":"臺北市松山區敦化北路170號","coordinate_accuracy":"行政區級近似座標"}},{"type":"Feature","geometry":{"type":"Point","coordinates":[121.499655,25.025952]},"properties":{"city":"臺北市","district":"萬華區","address":"臺北市萬華區峨眉街98~102號B1","coordinate_accuracy":"行政區級近似座標"}},{"type":"Feature","geometry":{"type":"Point","coordinates":[121.53927,25.026043]},"properties":{"city":"臺北市","district":"大安區","address":"臺北市大安區瑞安街135巷20號B1","coordinate_accuracy":"行政區級近似座標"}},{"type":"Feature","geometry":{"type":"Point","coordinates":[121.549313,25.029042]},"properties":{"city":"臺北市","district":"大安區","address":"臺北市大安區敦化南路一段225號B5","coordinate_accuracy":"行政區級近似座標"}},{"type":"Feature","geometry":{"type":"Point","coordinates":[121.593063,25.077063]},"properties":{"city":"臺北市","district":"內湖區","address":"臺北市內湖區潭美街潭美街151號","coordinate_accuracy":"行政區級近似座標"}},{"type":"Feature","geometry":{"type":"Point","coordinates":[121.513608,25.065939]},"properties":{"city":"臺北市","district":"大同區","address":"臺北市大同區重慶北路2段197號","coordinate_accuracy":"行政區級近似座標"}},{"type":"Feature","geometry":{"type":"Point","coordinates":[121.540919,25.067473]},"properties":{"city":"臺北市","district":"中山區","address":"臺北市中山區通北街111號B2(通北街133巷內)","coordinate_accuracy":"行政區級近似座標"}},{"type":"Feature","geometry":{"type":"Point","coordinates":[121.546878,25.022526]},"properties":{"city":"臺北市","district":"大安區","address":"臺北市大安區光復南路204巷2號","coordinate_accuracy":"行政區級近似座標"}},{"type":"Feature","geometry":{"type":"Point","coordinates":[121.543358,25.073868]},"properties":{"city":"臺北市","district":"中山區","address":"臺北市中山區明水路397巷19弄28號","coordinate_accuracy":"行政區級近似座標"}},{"type":"Feature","geometry":{"type":"Point","coordinates":[121.540277,25.06412]},"properties":{"city":"臺北市","district":"中山區","address":"臺北市中山區明水路397巷19弄28號","coordinate_accuracy":"行政區級近似座標"}},{"type":"Feature","geometry":{"type":"Point","coordinates":[121.497873,25.034194]},"properties":{"city":"臺北市","district":"萬華區","address":"臺北市萬華區中華路一段170號","coordinate_accuracy":"行政區級近似座標"}},{"type":"Feature","geometry":{"type":"Point","coordinates":[121.575434,24.992756]},"properties":{"city":"臺北市","district":"文山區","address":"臺北市文山區木柵路一段357號","coordinate_accuracy":"行政區級近似座標"}},{"type":"Feature","geometry":{"type":"Point","coordinates":[121.581974,25.084948]},"properties":{"city":"臺北市","district":"內湖區","address":"臺北市內湖區內湖路一段91巷102弄12號","coordinate_accuracy":"行政區級近似座標"}},{"type":"Feature","geometry":{"type":"Point","coordinates":[121.551038,25.065856]},"properties":{"city":"臺北市","district":"中山區","address":"臺北市中山區明水路397巷19弄17號","coordinate_accuracy":"行政區級近似座標"}},{"type":"Feature","geometry":{"type":"Point","coordinates":[121.541888,25.061946]},"properties":{"city":"臺北市","district":"中山區","address":"臺北市中山區明水路397巷19弄17號","coordinate_accuracy":"行政區級近似座標"}},{"type":"Feature","geometry":{"type":"Point","coordinates":[121.547169,25.073973]},"properties":{"city":"臺北市","district":"中山區","address":"臺北市中山區明水路397巷19弄17號","coordinate_accuracy":"行政區級近似座標"}},{"type":"Feature","geometry":{"type":"Point","coordinates":[121.538467,25.067071]},"properties":{"city":"臺北市","district":"中山區","address":"臺北市中山區明水路397巷19弄17號","coordinate_accuracy":"行政區級近似座標"}},{"type":"Feature","geometry":{"type":"Point","coordinates":[121.538818,25.022769]},"properties":{"city":"臺北市","district":"大安區","address":"臺北市大安區敦化南路二段104號","coordinate_accuracy":"行政區級近似座標"}},{"type":"Feature","geometry":{"type":"Point","coordinates":[121.54481,25.032427]},"properties":{"city":"臺北市","district":"大安區","address":"臺北市大安區敦化南路二段104號","coordinate_accuracy":"行政區級近似座標"}},{"type":"Feature","geometry":{"type":"Point","coordinates":[121.546117,25.060059]},"properties":{"city":"臺北市","district":"中山區","address":"臺北市中山區北安路630巷25弄18號","coordinate_accuracy":"行政區級近似座標"}},{"type":"Feature","geometry":{"type":"Point","coordinates":[121.547638,25.060961]},"properties":{"city":"臺北市","district":"中山區","address":"臺北市中山區北安路630巷25弄18號","coordinate_accuracy":"行政區級近似座標"}},{"type":"Feature","geometry":{"type":"Point","coordinates":[121.551311,25.075232]},"properties":{"city":"臺北市","district":"中山區","address":"臺北市中山區北安路630巷25弄18號","coordinate_accuracy":"行政區級近似座標"}},{"type":"Feature","geometry":{"type":"Point","coordinates":[121.536365,25.023906]},"properties":{"city":"臺北市","district":"大安區","address":"臺北市大安區羅斯福路三段86號","coordinate_accuracy":"行政區級近似座標"}},{"type":"Feature","geometry":{"type":"Point","coordinates":[121.543609,25.07495]},"properties":{"city":"臺北市","district":"中山區","address":"臺北市中山區明水路649~659號","coordinate_accuracy":"行政區級近似座標"}},{"type":"Feature","geometry":{"type":"Point","coordinates":[121.552848,25.069869]},"properties":{"city":"臺北市","district":"中山區","address":"臺北市中山區明水路649~659號","coordinate_accuracy":"行政區級近似座標"}},{"type":"Feature","geometry":{"type":"Point","coordinates":[121.536991,25.124758]},"properties":{"city":"臺北市","district":"士林區","address":"臺北市士林區陽明山莊頂路168號","coordinate_accuracy":"行政區級近似座標"}},{"type":"Feature","geometry":{"type":"Point","coordinates":[121.52955,25.14695]},"properties":{"city":"臺北市","district":"士林區","address":"臺北市士林區陽明山莊頂路168號","coordinate_accuracy":"行政區級近似座標"}},{"type":"Feature","geometry":{"type":"Point","coordinates":[121.509234,25.15193]},"properties":{"city":"臺北市","district":"北投區","address":"臺北市北投區泉源路35巷36之10-29號","coordinate_accuracy":"行政區級近似座標"}},{"type":"Feature","geometry":{"type":"Point","coordinates":[121.504153,25.159318]},"properties":{"city":"臺北市","district":"北投區","address":"臺北市北投區泉源路35巷36之10-29號","coordinate_accuracy":"行政區級近似座標"}},{"type":"Feature","geometry":{"type":"Point","coordinates":[121.580371,24.988869]},"properties":{"city":"臺北市","district":"文山區","address":"臺北市文山區久康街52號","coordinate_accuracy":"行政區級近似座標"}},{"type":"Feature","geometry":{"type":"Point","coordinates":[121.578554,25.028351]},"properties":{"city":"臺北市","district":"信義區","address":"臺北市信義區永吉路65號","coordinate_accuracy":"行政區級近似座標"}},{"type":"Feature","geometry":{"type":"Point","coordinates":[121.523271,25.163442]},"properties":{"city":"臺北市","district":"北投區","address":"臺北市北投區東華街二段90號","coordinate_accuracy":"行政區級近似座標"}},{"type":"Feature","geometry":{"type":"Point","coordinates":[121.572902,24.991887]},"properties":{"city":"臺北市","district":"文山區","address":"臺北市文山區萬和街6號","coordinate_accuracy":"行政區級近似座標"}},{"type":"Feature","geometry":{"type":"Point","coordinates":[121.576008,24.992882]},"properties":{"city":"臺北市","district":"文山區","address":"臺北市文山區萬和街6號","coordinate_accuracy":"行政區級近似座標"}},{"type":"Feature","geometry":{"type":"Point","coordinates":[121.581862,24.991121]},"properties":{"city":"臺北市","district":"文山區","address":"臺北市文山區辛亥路四段101巷140號","coordinate_accuracy":"行政區級近似座標"}},{"type":"Feature","geometry":{"type":"Point","coordinates":[121.572111,24.995274]},"properties":{"city":"臺北市","district":"文山區","address":"臺北市文山區福興路62號","coordinate_accuracy":"行政區級近似座標"}},{"type":"Feature","geometry":{"type":"Point","coordinates":[121.578086,24.993664]},"properties":{"city":"臺北市","district":"文山區","address":"臺北市文山區福興路62號","coordinate_accuracy":"行政區級近似座標"}},{"type":"Feature","geometry":{"type":"Point","coordinates":[121.523615,25.165542]},"properties":{"city":"臺北市","district":"北投區","address":"臺北市北投區石牌路二段362號","coordinate_accuracy":"行政區級近似座標"}},{"type":"Feature","geometry":{"type":"Point","coordinates":[121.532232,25.165503]},"properties":{"city":"臺北市","district":"北投區","address":"臺北市北投區石牌路二段362號","coordinate_accuracy":"行政區級近似座標"}},{"type":"Feature","geometry":{"type":"Point","coordinates":[121.550322,25.074638]},"properties":{"city":"臺北市","district":"中山區","address":"臺北市中山區北安路608巷5弄16號","coordinate_accuracy":"行政區級近似座標"}},{"type":"Feature","geometry":{"type":"Point","coordinates":[121.552839,25.066489]},"properties":{"city":"臺北市","district":"中山區","address":"臺北市中山區明水路557巷10-16號","coordinate_accuracy":"行政區級近似座標"}},{"type":"Feature","geometry":{"type":"Point","coordinates":[121.55323,25.062639]},"properties":{"city":"臺北市","district":"中山區","address":"臺北市中山區明水路557巷10-16號","coordinate_accuracy":"行政區級近似座標"}},{"type":"Feature","geometry":{"type":"Point","coordinates":[121.620291,25.030875]},"properties":{"city":"臺北市","district":"南港區","address":"臺北市南港區興華路64巷1-11號","coordinate_accuracy":"行政區級近似座標"}},{"type":"Feature","geometry":{"type":"Point","coordinates":[121.624784,25.029411]},"properties":{"city":"臺北市","district":"南港區","address":"臺北市南港區興華路64巷1-11號","coordinate_accuracy":"行政區級近似座標"}},{"type":"Feature","geometry":{"type":"Point","coordinates":[121.553439,25.074237]},"properties":{"city":"臺北市","district":"中山區","address":"臺北市中山區明水路593~601號","coordinate_accuracy":"行政區級近似座標"}},{"type":"Feature","geometry":{"type":"Point","coordinates":[121.550591,25.06171]},"properties":{"city":"臺北市","district":"中山區","address":"臺北市中山區明水路457~471號","coordinate_accuracy":"行政區級近似座標"}},{"type":"Feature","geometry":{"type":"Point","coordinates":[121.538454,25.060723]},"properties":{"city":"臺北市","district":"中山區","address":"臺北市中山區北安路761號","coordinate_accuracy":"行政區級近似座標"}},{"type":"Feature","geometry":{"type":"Point","coordinates":[121.547639,25.061249]},"properties":{"city":"臺北市","district":"中山區","address":"臺北市中山區北安路761號","coordinate_accuracy":"行政區級近似座標"}},{"type":"Feature","geometry":{"type":"Point","coordinates":[121.571816,24.981207]},"properties":{"city":"臺北市","district":"文山區","address":"臺北市文山區久康街24巷7號","coordinate_accuracy":"行政區級近似座標"}},{"type":"Feature","geometry":{"type":"Point","coordinates":[121.551447,25.075601]},"properties":{"city":"臺北市","district":"中山區","address":"臺北市中山區天祥路80號","coordinate_accuracy":"行政區級近似座標"}},{"type":"Feature","geometry":{"type":"Point","coordinates":[121.527098,25.135192]},"properties":{"city":"臺北市","district":"北投區","address":"臺北市北投區溫泉路37巷26號等","coordinate_accuracy":"行政區級近似座標"}},{"type":"Feature","geometry":{"type":"Point","coordinates":[121.565287,25.032036]},"properties":{"city":"臺北市","district":"信義區","address":"臺北市信義區忠孝東路五段453號","coordinate_accuracy":"行政區級近似座標"}},{"type":"Feature","geometry":{"type":"Point","coordinates":[121.542242,25.078566]},"properties":{"city":"臺北市","district":"中山區","address":"臺北市中山區敬業三路161巷3號","coordinate_accuracy":"行政區級近似座標"}},{"type":"Feature","geometry":{"type":"Point","coordinates":[121.54041,25.075886]},"properties":{"city":"臺北市","district":"中山區","address":"臺北市中山區基湖路112巷56號","coordinate_accuracy":"行政區級近似座標"}},{"type":"Feature","geometry":{"type":"Point","coordinates":[121.551498,25.078638]},"properties":{"city":"臺北市","district":"中山區","address":"臺北市中山區中山北路二段168號","coordinate_accuracy":"行政區級近似座標"}},{"type":"Feature","geometry":{"type":"Point","coordinates":[121.541798,25.020764]},"properties":{"city":"臺北市","district":"大安區","address":"臺北市大安區市民大道四段136號1樓","coordinate_accuracy":"行政區級近似座標"}},{"type":"Feature","geometry":{"type":"Point","coordinates":[121.55165,25.077907]},"properties":{"city":"臺北市","district":"中山區","address":"臺北市中山區堤頂大道二段354號1樓","coordinate_accuracy":"行政區級近似座標"}},{"type":"Feature","geometry":{"type":"Point","coordinates":[121.552341,25.059766]},"properties":{"city":"臺北市","district":"中山區","address":"臺北市中山區敬業二路69巷2、6、8號","coordinate_accuracy":"行政區級近似座標"}},{"type":"Feature","geometry":{"type":"Point","coordinates":[121.576242,24.980048]},"properties":{"city":"臺北市","district":"文山區","address":"臺北市文山區新光路一段65巷20號~38號","coordinate_accuracy":"行政區級近似座標"}},{"type":"Feature","geometry":{"type":"Point","coordinates":[121.584344,25.086504]},"properties":{"city":"臺北市","district":"內湖區","address":"臺北市內湖區民權東路六段296巷26號","coordinate_accuracy":"行政區級近似座標"}},{"type":"Feature","geometry":{"type":"Point","coordinates":[121.553612,25.075176]},"properties":{"city":"臺北市","district":"中山區","address":"臺北市中山區基湖路157巷13號~15號","coordinate_accuracy":"行政區級近似座標"}},{"type":"Feature","geometry":{"type":"Point","coordinates":[121.542749,25.07768]},"properties":{"city":"臺北市","district":"中山區","address":"臺北市中山區復興北路448號","coordinate_accuracy":"行政區級近似座標"}},{"type":"Feature","geometry":{"type":"Point","coordinates":[121.59725,25.088636]},"properties":{"city":"臺北市","district":"內湖區","address":"臺北市內湖區星雲街168巷1號","coordinate_accuracy":"行政區級近似座標"}},{"type":"Feature","geometry":{"type":"Point","coordinates":[121.523371,25.035475]},"properties":{"city":"臺北市","district":"中正區","address":"臺北市中正區水源路65號","coordinate_accuracy":"行政區級近似座標"}},{"type":"Feature","geometry":{"type":"Point","coordinates":[121.550408,25.021897]},"properties":{"city":"臺北市","district":"大安區","address":"臺北市大安區青田街6巷12號","coordinate_accuracy":"行政區級近似座標"}},{"type":"Feature","geometry":{"type":"Point","coordinates":[121.514948,25.027281]},"properties":{"city":"臺北市","district":"中正區","address":"臺北市中正區羅斯福路2段150號","coordinate_accuracy":"行政區級近似座標"}},{"type":"Feature","geometry":{"type":"Point","coordinates":[121.523754,25.034363]},"properties":{"city":"臺北市","district":"中正區","address":"臺北市中正區羅斯福路1段83巷2號","coordinate_accuracy":"行政區級近似座標"}},{"type":"Feature","geometry":{"type":"Point","coordinates":[121.49962,25.03396]},"properties":{"city":"臺北市","district":"萬華區","address":"臺北市萬華區洛陽街47號","coordinate_accuracy":"行政區級近似座標"}},{"type":"Feature","geometry":{"type":"Point","coordinates":[121.575194,25.033915]},"properties":{"city":"臺北市","district":"信義區","address":"臺北市信義區信義路4段151號","coordinate_accuracy":"行政區級近似座標"}},{"type":"Feature","geometry":{"type":"Point","coordinates":[121.56645,25.034595]},"properties":{"city":"臺北市","district":"信義區","address":"臺北市信義區信義路4段151號","coordinate_accuracy":"行政區級近似座標"}},{"type":"Feature","geometry":{"type":"Point","coordinates":[121.595427,25.078179]},"properties":{"city":"臺北市","district":"內湖區","address":"臺北市內湖區港墘路26巷3號","coordinate_accuracy":"行政區級近似座標"}},{"type":"Feature","geometry":{"type":"Point","coordinates":[121.537021,25.02391]},"properties":{"city":"臺北市","district":"大安區","address":"臺北市大安區光復南路240巷48號","coordinate_accuracy":"行政區級近似座標"}},{"type":"Feature","geometry":{"type":"Point","coordinates":[121.627357,25.046997]},"properties":{"city":"臺北市","district":"南港區","address":"臺北市南港區南深路33號","coordinate_accuracy":"行政區級近似座標"}},{"type":"Feature","geometry":{"type":"Point","coordinates":[121.569893,25.034924]},"properties":{"city":"臺北市","district":"信義區","address":"臺北市信義區基隆路一段145號","coordinate_accuracy":"行政區級近似座標"}},{"type":"Feature","geometry":{"type":"Point","coordinates":[121.590403,25.075702]},"properties":{"city":"臺北市","district":"內湖區","address":"臺北市內湖區港墘路11~13號","coordinate_accuracy":"行政區級近似座標"}},{"type":"Feature","geometry":{"type":"Point","coordinates":[121.551312,25.025077]},"properties":{"city":"臺北市","district":"大安區","address":"臺北市大安區青田街12巷12號","coordinate_accuracy":"行政區級近似座標"}},{"type":"Feature","geometry":{"type":"Point","coordinates":[121.579292,25.02922]},"properties":{"city":"臺北市","district":"信義區","address":"臺北市信義區信義路6段29~31號","coordinate_accuracy":"行政區級近似座標"}},{"type":"Feature","geometry":{"type":"Point","coordinates":[121.583584,25.076631]},"properties":{"city":"臺北市","district":"內湖區","address":"臺北市內湖區民權東路6段123巷20弄21號","coordinate_accuracy":"行政區級近似座標"}},{"type":"Feature","geometry":{"type":"Point","coordinates":[121.584168,25.089799]},"properties":{"city":"臺北市","district":"內湖區","address":"臺北市內湖區成功路2段365號","coordinate_accuracy":"行政區級近似座標"}},{"type":"Feature","geometry":{"type":"Point","coordinates":[121.598501,25.081369]},"properties":{"city":"臺北市","district":"內湖區","address":"臺北市內湖區成功路2段369號","coordinate_accuracy":"行政區級近似座標"}},{"type":"Feature","geometry":{"type":"Point","coordinates":[121.597686,25.074926]},"properties":{"city":"臺北市","district":"內湖區","address":"臺北市內湖區成功路2段373號","coordinate_accuracy":"行政區級近似座標"}},{"type":"Feature","geometry":{"type":"Point","coordinates":[121.578005,25.08495]},"properties":{"city":"臺北市","district":"內湖區","address":"臺北市內湖區大湖山莊街148號","coordinate_accuracy":"行政區級近似座標"}},{"type":"Feature","geometry":{"type":"Point","coordinates":[121.580973,25.076192]},"properties":{"city":"臺北市","district":"內湖區","address":"臺北市內湖區大湖山莊街150號","coordinate_accuracy":"行政區級近似座標"}},{"type":"Feature","geometry":{"type":"Point","coordinates":[121.586278,25.091336]},"properties":{"city":"臺北市","district":"內湖區","address":"臺北市內湖區大湖階131巷2弄2~12號","coordinate_accuracy":"行政區級近似座標"}},{"type":"Feature","geometry":{"type":"Point","coordinates":[121.596673,25.074344]},"properties":{"city":"臺北市","district":"內湖區","address":"臺北市內湖區成功路4段68號","coordinate_accuracy":"行政區級近似座標"}},{"type":"Feature","geometry":{"type":"Point","coordinates":[121.501908,25.028666]},"properties":{"city":"臺北市","district":"萬華區","address":"臺北市萬華區環河南路2段250巷25弄6號","coordinate_accuracy":"行政區級近似座標"}},{"type":"Feature","geometry":{"type":"Point","coordinates":[121.601964,25.080187]},"properties":{"city":"臺北市","district":"內湖區","address":"臺北市內湖區民權東路6段128巷26號","coordinate_accuracy":"行政區級近似座標"}},{"type":"Feature","geometry":{"type":"Point","coordinates":[121.586564,25.094124]},"properties":{"city":"臺北市","district":"內湖區","address":"臺北市內湖區文湖路21巷112弄11~23號","coordinate_accuracy":"行政區級近似座標"}},{"type":"Feature","geometry":{"type":"Point","coordinates":[121.577531,25.088475]},"properties":{"city":"臺北市","district":"內湖區","address":"臺北市內湖區文德路22巷9弄34號","coordinate_accuracy":"行政區級近似座標"}},{"type":"Feature","geometry":{"type":"Point","coordinates":[121.52502,25.022392]},"properties":{"city":"臺北市","district":"中正區","address":"臺北市中正區杭州南路1段103號","coordinate_accuracy":"行政區級近似座標"}},{"type":"Feature","geometry":{"type":"Point","coordinates":[121.526484,25.027628]},"properties":{"city":"臺北市","district":"中正區","address":"臺北市中正區金華街34號","coordinate_accuracy":"行政區級近似座標"}},{"type":"Feature","geometry":{"type":"Point","coordinates":[121.592159,25.072803]},"properties":{"city":"臺北市","district":"內湖區","address":"臺北市內湖區內湖路3段60巷12弄73號","coordinate_accuracy":"行政區級近似座標"}},{"type":"Feature","geometry":{"type":"Point","coordinates":[121.602913,25.085574]},"properties":{"city":"臺北市","district":"內湖區","address":"臺北市內湖區內湖路3段60巷12弄71號","coordinate_accuracy":"行政區級近似座標"}},{"type":"Feature","geometry":{"type":"Point","coordinates":[121.603065,25.089804]},"properties":{"city":"臺北市","district":"內湖區","address":"臺北市內湖區內湖路3段72巷75號","coordinate_accuracy":"行政區級近似座標"}},{"type":"Feature","geometry":{"type":"Point","coordinates":[121.583654,25.07219]},"properties":{"city":"臺北市","district":"內湖區","address":"臺北市內湖區內湖路3段72巷77號","coordinate_accuracy":"行政區級近似座標"}},{"type":"Feature","geometry":{"type":"Point","coordinates":[121.575776,25.078836]},"properties":{"city":"臺北市","district":"內湖區","address":"臺北市內湖區內湖路3段60巷12弄70~76號","coordinate_accuracy":"行政區級近似座標"}},{"type":"Feature","geometry":{"type":"Point","coordinates":[121.599977,25.07138]},"properties":{"city":"臺北市","district":"內湖區","address":"臺北市內湖區內湖路3段72巷61號","coordinate_accuracy":"行政區級近似座標"}},{"type":"Feature","geometry":{"type":"Point","coordinates":[121.577453,25.082215]},"properties":{"city":"臺北市","district":"內湖區","address":"臺北市內湖區內湖路3段72巷63號","coordinate_accuracy":"行政區級近似座標"}},{"type":"Feature","geometry":{"type":"Point","coordinates":[121.606187,25.086486]},"properties":{"city":"臺北市","district":"內湖區","address":"臺北市內湖區內湖路3段72巷59號號","coordinate_accuracy":"行政區級近似座標"}},{"type":"Feature","geometry":{"type":"Point","coordinates":[121.514007,25.034811]},"properties":{"city":"臺北市","district":"中正區","address":"臺北市中正區羅斯福路1段119巷12號","coordinate_accuracy":"行政區級近似座標"}},{"type":"Feature","geometry":{"type":"Point","coordinates":[121.522591,25.1481]},"properties":{"city":"臺北市","district":"士林區","address":"臺北市士林區士商路137號","coordinate_accuracy":"行政區級近似座標"}},{"type":"Feature","geometry":{"type":"Point","coordinates":[121.495403,25.033406]},"properties":{"city":"臺北市","district":"萬華區","address":"臺北市萬華區貴陽階2段152號","coordinate_accuracy":"行政區級近似座標"}},{"type":"Feature","geometry":{"type":"Point","coordinates":[121.548391,25.030416]},"properties":{"city":"臺北市","district":"大安區","address":"臺北市大安區麗水街33巷3~5號","coordinate_accuracy":"行政區級近似座標"}},{"type":"Feature","geometry":{"type":"Point","coordinates":[121.599431,25.074038]},"properties":{"city":"臺北市","district":"內湖區","address":"臺北市內湖區陽光街68巷59號","coordinate_accuracy":"行政區級近似座標"}},{"type":"Feature","geometry":{"type":"Point","coordinates":[121.544913,25.058807]},"properties":{"city":"臺北市","district":"中山區","address":"臺北市中山區基湖路157巷1號","coordinate_accuracy":"行政區級近似座標"}},{"type":"Feature","geometry":{"type":"Point","coordinates":[121.51541,25.024759]},"properties":{"city":"臺北市","district":"中正區","address":"臺北市中正區寧波西街18號","coordinate_accuracy":"行政區級近似座標"}},{"type":"Feature","geometry":{"type":"Point","coordinates":[121.580779,24.979605]},"properties":{"city":"臺北市","district":"文山區","address":"臺北市文山區木新路三段95巷7弄5號","coordinate_accuracy":"行政區級近似座標"}},{"type":"Feature","geometry":{"type":"Point","coordinates":[121.578424,24.996744]},"properties":{"city":"臺北市","district":"文山區","address":"臺北市文山區木新路三段95巷42號","coordinate_accuracy":"行政區級近似座標"}},{"type":"Feature","geometry":{"type":"Point","coordinates":[121.552507,25.060273]},"properties":{"city":"臺北市","district":"中山區","address":"臺北市中山區林森北路363號","coordinate_accuracy":"行政區級近似座標"}},{"type":"Feature","geometry":{"type":"Point","coordinates":[121.575539,25.075432]},"properties":{"city":"臺北市","district":"內湖區","address":"臺北市內湖區星雲街163~165號","coordinate_accuracy":"行政區級近似座標"}},{"type":"Feature","geometry":{"type":"Point","coordinates":[121.582286,25.029398]},"properties":{"city":"臺北市","district":"信義區","address":"臺北市信義區信義路五段111號","coordinate_accuracy":"行政區級近似座標"}},{"type":"Feature","geometry":{"type":"Point","coordinates":[121.548369,25.125468]},"properties":{"city":"臺北市","district":"士林區","address":"臺北市士林區士商路125號","coordinate_accuracy":"行政區級近似座標"}},{"type":"Feature","geometry":{"type":"Point","coordinates":[121.564799,25.063547]},"properties":{"city":"臺北市","district":"松山區","address":"臺北市松山區南京東路4段52巷8之3號","coordinate_accuracy":"行政區級近似座標"}},{"type":"Feature","geometry":{"type":"Point","coordinates":[121.550305,25.020683]},"properties":{"city":"臺北市","district":"大安區","address":"臺北市大安區新生南路21號","coordinate_accuracy":"行政區級近似座標"}},{"type":"Feature","geometry":{"type":"Point","coordinates":[121.550662,25.02921]},"properties":{"city":"臺北市","district":"大安區","address":"臺北市大安區復興南路一段259號","coordinate_accuracy":"行政區級近似座標"}},{"type":"Feature","geometry":{"type":"Point","coordinates":[121.535405,25.023116]},"properties":{"city":"臺北市","district":"大安區","address":"臺北市大安區復興南路一段259號","coordinate_accuracy":"行政區級近似座標"}},{"type":"Feature","geometry":{"type":"Point","coordinates":[121.570843,25.02164]},"properties":{"city":"臺北市","district":"信義區","address":"臺北市信義區忠孝東路五段236巷45弄1~7號","coordinate_accuracy":"行政區級近似座標"}},{"type":"Feature","geometry":{"type":"Point","coordinates":[121.56589,25.031439]},"properties":{"city":"臺北市","district":"信義區","address":"臺北市信義區基隆路二段149之49號","coordinate_accuracy":"行政區級近似座標"}},{"type":"Feature","geometry":{"type":"Point","coordinates":[121.571036,25.036358]},"properties":{"city":"臺北市","district":"信義區","address":"臺北市信義區和平東路三段315號","coordinate_accuracy":"行政區級近似座標"}},{"type":"Feature","geometry":{"type":"Point","coordinates":[121.542214,25.149618]},"properties":{"city":"臺北市","district":"士林區","address":"臺北市士林區天母西路50巷43-45號","coordinate_accuracy":"行政區級近似座標"}},{"type":"Feature","geometry":{"type":"Point","coordinates":[121.502783,25.030002]},"properties":{"city":"臺北市","district":"萬華區","address":"臺北市萬華區東園街173-177號","coordinate_accuracy":"行政區級近似座標"}},{"type":"Feature","geometry":{"type":"Point","coordinates":[121.551256,25.148049]},"properties":{"city":"臺北市","district":"士林區","address":"臺北市士林區中山北路六段441巷51號","coordinate_accuracy":"行政區級近似座標"}},{"type":"Feature","geometry":{"type":"Point","coordinates":[121.537235,25.062496]},"properties":{"city":"臺北市","district":"中山區","address":"臺北市中山區農安街19號","coordinate_accuracy":"行政區級近似座標"}},{"type":"Feature","geometry":{"type":"Point","coordinates":[121.494146,25.034407]},"properties":{"city":"臺北市","district":"萬華區","address":"臺北市萬華區西園路二段127~139號","coordinate_accuracy":"行政區級近似座標"}},{"type":"Feature","geometry":{"type":"Point","coordinates":[121.504529,25.03185]},"properties":{"city":"臺北市","district":"萬華區","address":"臺北市萬華區西園路二段127~139號","coordinate_accuracy":"行政區級近似座標"}},{"type":"Feature","geometry":{"type":"Point","coordinates":[121.556216,25.068521]},"properties":{"city":"臺北市","district":"中山區","address":"臺北市中山區復興北路436號","coordinate_accuracy":"行政區級近似座標"}},{"type":"Feature","geometry":{"type":"Point","coordinates":[121.533311,25.117279]},"properties":{"city":"臺北市","district":"士林區","address":"臺北市士林區士商路149號","coordinate_accuracy":"行政區級近似座標"}},{"type":"Feature","geometry":{"type":"Point","coordinates":[121.552941,25.135641]},"properties":{"city":"臺北市","district":"士林區","address":"臺北市士林區劍潭路71號","coordinate_accuracy":"行政區級近似座標"}},{"type":"Feature","geometry":{"type":"Point","coordinates":[121.614078,25.044586]},"properties":{"city":"臺北市","district":"南港區","address":"臺北市南港區永吉路553巷9號","coordinate_accuracy":"行政區級近似座標"}},{"type":"Feature","geometry":{"type":"Point","coordinates":[121.557945,25.117645]},"properties":{"city":"臺北市","district":"士林區","address":"臺北市士林區天母東路75-79號","coordinate_accuracy":"行政區級近似座標"}},{"type":"Feature","geometry":{"type":"Point","coordinates":[121.554817,25.072]},"properties":{"city":"臺北市","district":"中山區","address":"臺北市中山區長安東路一段30巷8弄7號","coordinate_accuracy":"行政區級近似座標"}},{"type":"Feature","geometry":{"type":"Point","coordinates":[121.58091,24.982113]},"properties":{"city":"臺北市","district":"文山區","address":"臺北市文山區興隆路二段217巷8號等","coordinate_accuracy":"行政區級近似座標"}},{"type":"Feature","geometry":{"type":"Point","coordinates":[121.58094,25.030184]},"properties":{"city":"臺北市","district":"信義區","address":"臺北市信義區光復南路429~437號","coordinate_accuracy":"行政區級近似座標"}},{"type":"Feature","geometry":{"type":"Point","coordinates":[121.597583,25.098723]},"properties":{"city":"臺北市","district":"內湖區","address":"臺北市內湖區內湖路一段699~713號","coordinate_accuracy":"行政區級近似座標"}},{"type":"Feature","geometry":{"type":"Point","coordinates":[121.549589,25.034051]},"properties":{"city":"臺北市","district":"大安區","address":"臺北市大安區敦化南路一段270巷6~12號","coordinate_accuracy":"行政區級近似座標"}},{"type":"Feature","geometry":{"type":"Point","coordinates":[121.566578,24.980859]},"properties":{"city":"臺北市","district":"文山區","address":"臺北市文山區指南路三段77巷1~3號","coordinate_accuracy":"行政區級近似座標"}},{"type":"Feature","geometry":{"type":"Point","coordinates":[121.572103,24.979832]},"properties":{"city":"臺北市","district":"文山區","address":"臺北市文山區指南路三段77巷1~4號","coordinate_accuracy":"行政區級近似座標"}},{"type":"Feature","geometry":{"type":"Point","coordinates":[121.566147,24.992173]},"properties":{"city":"臺北市","district":"文山區","address":"臺北市文山區三福街9巷2~12號","coordinate_accuracy":"行政區級近似座標"}},{"type":"Feature","geometry":{"type":"Point","coordinates":[121.585937,24.989503]},"properties":{"city":"臺北市","district":"文山區","address":"臺北市文山區三福街9巷2~12號","coordinate_accuracy":"行政區級近似座標"}},{"type":"Feature","geometry":{"type":"Point","coordinates":[121.566294,24.986088]},"properties":{"city":"臺北市","district":"文山區","address":"臺北市文山區三福街9巷2~12號","coordinate_accuracy":"行政區級近似座標"}},{"type":"Feature","geometry":{"type":"Point","coordinates":[121.513208,25.132517]},"properties":{"city":"臺北市","district":"士林區","address":"臺北市士林區士商路167號","coordinate_accuracy":"行政區級近似座標"}},{"type":"Feature","geometry":{"type":"Point","coordinates":[121.499833,25.034233]},"properties":{"city":"臺北市","district":"萬華區","address":"臺北市萬華區萬青街186號","coordinate_accuracy":"行政區級近似座標"}},{"type":"Feature","geometry":{"type":"Point","coordinates":[121.496983,25.023476]},"properties":{"city":"臺北市","district":"萬華區","address":"臺北市萬華區萬青街186號","coordinate_accuracy":"行政區級近似座標"}},{"type":"Feature","geometry":{"type":"Point","coordinates":[121.504692,25.030637]},"properties":{"city":"臺北市","district":"萬華區","address":"臺北市萬華區萬青街186號","coordinate_accuracy":"行政區級近似座標"}},{"type":"Feature","geometry":{"type":"Point","coordinates":[121.493577,25.022882]},"properties":{"city":"臺北市","district":"萬華區","address":"臺北市萬華區萬青街186號","coordinate_accuracy":"行政區級近似座標"}},{"type":"Feature","geometry":{"type":"Point","coordinates":[121.542386,25.034408]},"properties":{"city":"臺北市","district":"大安區","address":"臺北市大安區忠孝東路四段559巷16弄24~36號","coordinate_accuracy":"行政區級近似座標"}},{"type":"Feature","geometry":{"type":"Point","coordinates":[121.49702,25.145909]},"properties":{"city":"臺北市","district":"北投區","address":"臺北市北投區北投泉源路39之37號","coordinate_accuracy":"行政區級近似座標"}},{"type":"Feature","geometry":{"type":"Point","coordinates":[121.577768,25.086692]},"properties":{"city":"臺北市","district":"內湖區","address":"臺北市內湖區康寧路3段56巷138號","coordinate_accuracy":"行政區級近似座標"}},{"type":"Feature","geometry":{"type":"Point","coordinates":[121.597125,25.094779]},"properties":{"city":"臺北市","district":"內湖區","address":"臺北市內湖區康寧路3段56巷156號","coordinate_accuracy":"行政區級近似座標"}},{"type":"Feature","geometry":{"type":"Point","coordinates":[121.538054,25.021127]},"properties":{"city":"臺北市","district":"大安區","address":"臺北市大安區光復南路266號","coordinate_accuracy":"行政區級近似座標"}},{"type":"Feature","geometry":{"type":"Point","coordinates":[121.538844,25.034854]},"properties":{"city":"臺北市","district":"大安區","address":"臺北市大安區光復南路288號","coordinate_accuracy":"行政區級近似座標"}},{"type":"Feature","geometry":{"type":"Point","coordinates":[121.552337,25.0201]},"properties":{"city":"臺北市","district":"大安區","address":"臺北市大安區光復南路348號","coordinate_accuracy":"行政區級近似座標"}},{"type":"Feature","geometry":{"type":"Point","coordinates":[121.549662,25.031486]},"properties":{"city":"臺北市","district":"大安區","address":"臺北市大安區光復南路552號","coordinate_accuracy":"行政區級近似座標"}},{"type":"Feature","geometry":{"type":"Point","coordinates":[121.506428,25.1369]},"properties":{"city":"臺北市","district":"士林區","address":"臺北市士林區士商路167號","coordinate_accuracy":"行政區級近似座標"}},{"type":"Feature","geometry":{"type":"Point","coordinates":[121.577405,25.082233]},"properties":{"city":"臺北市","district":"內湖區","address":"臺北市內湖區康寧路3段56巷168號","coordinate_accuracy":"行政區級近似座標"}},{"type":"Feature","geometry":{"type":"Point","coordinates":[121.540516,25.033732]},"properties":{"city":"臺北市","district":"大安區","address":"臺北市大安區和平東路三段464巷2號","coordinate_accuracy":"行政區級近似座標"}},{"type":"Feature","geometry":{"type":"Point","coordinates":[121.540227,25.03349]},"properties":{"city":"臺北市","district":"大安區","address":"臺北市大安區仁愛路4段454號","coordinate_accuracy":"行政區級近似座標"}},{"type":"Feature","geometry":{"type":"Point","coordinates":[121.547509,25.081989]},"properties":{"city":"臺北市","district":"中山區","address":"臺北市中山區長安東路2段16號","coordinate_accuracy":"行政區級近似座標"}},{"type":"Feature","geometry":{"type":"Point","coordinates":[121.533098,25.062773]},"properties":{"city":"臺北市","district":"中山區","address":"臺北市中山區松江路184巷26弄15號","coordinate_accuracy":"行政區級近似座標"}},{"type":"Feature","geometry":{"type":"Point","coordinates":[121.548024,25.081085]},"properties":{"city":"臺北市","district":"中山區","address":"臺北市中山區吉林路2號","coordinate_accuracy":"行政區級近似座標"}},{"type":"Feature","geometry":{"type":"Point","coordinates":[121.553388,25.059772]},"properties":{"city":"臺北市","district":"中山區","address":"臺北市中山區吉林路136、138號","coordinate_accuracy":"行政區級近似座標"}},{"type":"Feature","geometry":{"type":"Point","coordinates":[121.538598,25.06108]},"properties":{"city":"臺北市","district":"中山區","address":"臺北市中山區林森北路107巷","coordinate_accuracy":"行政區級近似座標"}},{"type":"Feature","geometry":{"type":"Point","coordinates":[121.572564,25.088551]},"properties":{"city":"臺北市","district":"內湖區","address":"臺北市內湖區民權東路6段123巷14號","coordinate_accuracy":"行政區級近似座標"}},{"type":"Feature","geometry":{"type":"Point","coordinates":[121.589552,25.096301]},"properties":{"city":"臺北市","district":"內湖區","address":"臺北市內湖區民權東路6段123巷18號","coordinate_accuracy":"行政區級近似座標"}},{"type":"Feature","geometry":{"type":"Point","coordinates":[121.555172,25.074742]},"properties":{"city":"臺北市","district":"中山區","address":"臺北市中山區長安東路一段52巷5號","coordinate_accuracy":"行政區級近似座標"}},{"type":"Feature","geometry":{"type":"Point","coordinates":[121.54947,25.057175]},"properties":{"city":"臺北市","district":"中山區","address":"臺北市中山區林森北路145巷52號","coordinate_accuracy":"行政區級近似座標"}},{"type":"Feature","geometry":{"type":"Point","coordinates":[121.542648,25.055378]},"properties":{"city":"臺北市","district":"中山區","address":"臺北市中山區吉林路1、3、5號","coordinate_accuracy":"行政區級近似座標"}},{"type":"Feature","geometry":{"type":"Point","coordinates":[121.572388,25.084989]},"properties":{"city":"臺北市","district":"內湖區","address":"臺北市內湖區金湖路328號","coordinate_accuracy":"行政區級近似座標"}},{"type":"Feature","geometry":{"type":"Point","coordinates":[121.588577,25.069244]},"properties":{"city":"臺北市","district":"內湖區","address":"臺北市內湖區金湖路329號等","coordinate_accuracy":"行政區級近似座標"}},{"type":"Feature","geometry":{"type":"Point","coordinates":[121.608987,25.082385]},"properties":{"city":"臺北市","district":"內湖區","address":"臺北市內湖區成功路五段452號","coordinate_accuracy":"行政區級近似座標"}},{"type":"Feature","geometry":{"type":"Point","coordinates":[121.577472,25.08484]},"properties":{"city":"臺北市","district":"內湖區","address":"臺北市內湖區成功路五段453號","coordinate_accuracy":"行政區級近似座標"}},{"type":"Feature","geometry":{"type":"Point","coordinates":[121.606329,25.086631]},"properties":{"city":"臺北市","district":"內湖區","address":"臺北市內湖區成功路五段454號","coordinate_accuracy":"行政區級近似座標"}},{"type":"Feature","geometry":{"type":"Point","coordinates":[121.580552,24.978987]},"properties":{"city":"臺北市","district":"文山區","address":"臺北市文山區木柵路四段137號","coordinate_accuracy":"行政區級近似座標"}},{"type":"Feature","geometry":{"type":"Point","coordinates":[121.586031,24.987102]},"properties":{"city":"臺北市","district":"文山區","address":"臺北市文山區萬美街一段36號","coordinate_accuracy":"行政區級近似座標"}},{"type":"Feature","geometry":{"type":"Point","coordinates":[121.58063,24.977388]},"properties":{"city":"臺北市","district":"文山區","address":"臺北市文山區政大二街66號","coordinate_accuracy":"行政區級近似座標"}},{"type":"Feature","geometry":{"type":"Point","coordinates":[121.565647,24.986311]},"properties":{"city":"臺北市","district":"文山區","address":"臺北市文山區汀州路4段178號","coordinate_accuracy":"行政區級近似座標"}},{"type":"Feature","geometry":{"type":"Point","coordinates":[121.569598,25.036907]},"properties":{"city":"臺北市","district":"信義區","address":"臺北市信義區忠孝東路五段236巷15-17號","coordinate_accuracy":"行政區級近似座標"}},{"type":"Feature","geometry":{"type":"Point","coordinates":[121.492877,25.027028]},"properties":{"city":"臺北市","district":"萬華區","address":"臺北市萬華區德昌街10巷10號1樓","coordinate_accuracy":"行政區級近似座標"}},{"type":"Feature","geometry":{"type":"Point","coordinates":[121.536592,25.029872]},"properties":{"city":"臺北市","district":"大安區","address":"臺北市大安區金山南路2段10巷25號","coordinate_accuracy":"行政區級近似座標"}},{"type":"Feature","geometry":{"type":"Point","coordinates":[121.573701,25.021007]},"properties":{"city":"臺北市","district":"信義區","address":"臺北市信義區吳興街284巷59弄6號","coordinate_accuracy":"行政區級近似座標"}},{"type":"Feature","geometry":{"type":"Point","coordinates":[121.517648,25.036422]},"properties":{"city":"臺北市","district":"中正區","address":"臺北市中正區杭州南路1段15-1號","coordinate_accuracy":"行政區級近似座標"}},{"type":"Feature","geometry":{"type":"Point","coordinates":[121.511724,25.064326]},"properties":{"city":"臺北市","district":"大同區","address":"臺北市大同區重慶北路2段15號","coordinate_accuracy":"行政區級近似座標"}},{"type":"Feature","geometry":{"type":"Point","coordinates":[121.516205,25.064425]},"properties":{"city":"臺北市","district":"大同區","address":"臺北市大同區重慶北路2段63號","coordinate_accuracy":"行政區級近似座標"}},{"type":"Feature","geometry":{"type":"Point","coordinates":[121.516384,25.064882]},"properties":{"city":"臺北市","district":"大同區","address":"臺北市大同區重慶北路2段63號","coordinate_accuracy":"行政區級近似座標"}},{"type":"Feature","geometry":{"type":"Point","coordinates":[121.557184,25.066319]},"properties":{"city":"臺北市","district":"松山區","address":"臺北市松山區三民路43巷19號","coordinate_accuracy":"行政區級近似座標"}},{"type":"Feature","geometry":{"type":"Point","coordinates":[121.580483,24.996543]},"properties":{"city":"臺北市","district":"文山區","address":"臺北市文山區萬壽路17巷1號","coordinate_accuracy":"行政區級近似座標"}},{"type":"Feature","geometry":{"type":"Point","coordinates":[121.565673,25.124641]},"properties":{"city":"臺北市","district":"士林區","address":"臺北市士林區中山北路6段195巷6號","coordinate_accuracy":"行政區級近似座標"}},{"type":"Feature","geometry":{"type":"Point","coordinates":[121.499116,25.14529]},"properties":{"city":"臺北市","district":"北投區","address":"臺北市北投區知行路222號","coordinate_accuracy":"行政區級近似座標"}},{"type":"Feature","geometry":{"type":"Point","coordinates":[121.491443,25.15621]},"properties":{"city":"臺北市","district":"北投區","address":"臺北市北投區大同街230號","coordinate_accuracy":"行政區級近似座標"}},{"type":"Feature","geometry":{"type":"Point","coordinates":[121.56312,24.983256]},"properties":{"city":"臺北市","district":"文山區","address":"臺北市文山區軍功路3號","coordinate_accuracy":"行政區級近似座標"}},{"type":"Feature","geometry":{"type":"Point","coordinates":[121.581704,24.975664]},"properties":{"city":"臺北市","district":"文山區","address":"臺北市文山區辛亥路6段21巷2號","coordinate_accuracy":"行政區級近似座標"}},{"type":"Feature","geometry":{"type":"Point","coordinates":[121.490194,25.029662]},"properties":{"city":"臺北市","district":"萬華區","address":"臺北市萬華區西藏路127號","coordinate_accuracy":"行政區級近似座標"}},{"type":"Feature","geometry":{"type":"Point","coordinates":[121.564549,25.054541]},"properties":{"city":"臺北市","district":"松山區","address":"臺北市松山區三民路136巷28號","coordinate_accuracy":"行政區級近似座標"}},{"type":"Feature","geometry":{"type":"Point","coordinates":[121.511644,25.067437]},"properties":{"city":"臺北市","district":"大同區","address":"臺北市大同區環河北路一段107號","coordinate_accuracy":"行政區級近似座標"}},{"type":"Feature","geometry":{"type":"Point","coordinates":[121.543091,25.056856]},"properties":{"city":"臺北市","district":"中山區","address":"臺北市中山區龍江路120巷9號","coordinate_accuracy":"行政區級近似座標"}},{"type":"Feature","geometry":{"type":"Point","coordinates":[121.542405,25.056266]},"properties":{"city":"臺北市","district":"中山區","address":"臺北市中山區龍江路120巷9號","coordinate_accuracy":"行政區級近似座標"}},{"type":"Feature","geometry":{"type":"Point","coordinates":[121.51638,25.065084]},"properties":{"city":"臺北市","district":"大同區","address":"臺北市大同區重慶北路三段76號","coordinate_accuracy":"行政區級近似座標"}},{"type":"Feature","geometry":{"type":"Point","coordinates":[121.5142,25.068513]},"properties":{"city":"臺北市","district":"大同區","address":"臺北市大同區重慶北路三段76號","coordinate_accuracy":"行政區級近似座標"}},{"type":"Feature","geometry":{"type":"Point","coordinates":[121.518464,25.021778]},"properties":{"city":"臺北市","district":"中正區","address":"臺北市中正區西藏路113號","coordinate_accuracy":"行政區級近似座標"}},{"type":"Feature","geometry":{"type":"Point","coordinates":[121.511417,25.067789]},"properties":{"city":"臺北市","district":"大同區","address":"臺北市大同區承德路一段105號","coordinate_accuracy":"行政區級近似座標"}},{"type":"Feature","geometry":{"type":"Point","coordinates":[121.506341,25.027381]},"properties":{"city":"臺北市","district":"萬華區","address":"臺北市萬華區桂林路141-1號","coordinate_accuracy":"行政區級近似座標"}},{"type":"Feature","geometry":{"type":"Point","coordinates":[121.509446,25.06488]},"properties":{"city":"臺北市","district":"大同區","address":"臺北市大同區民權西路146號","coordinate_accuracy":"行政區級近似座標"}},{"type":"Feature","geometry":{"type":"Point","coordinates":[121.512119,25.068225]},"properties":{"city":"臺北市","district":"大同區","address":"臺北市大同區民權西路146號","coordinate_accuracy":"行政區級近似座標"}},{"type":"Feature","geometry":{"type":"Point","coordinates":[121.521384,25.020733]},"properties":{"city":"臺北市","district":"中正區","address":"臺北市中正區仁愛路二段6號","coordinate_accuracy":"行政區級近似座標"}},{"type":"Feature","geometry":{"type":"Point","coordinates":[121.496507,25.037328]},"properties":{"city":"臺北市","district":"萬華區","address":"臺北市萬華區萬大路331號","coordinate_accuracy":"行政區級近似座標"}},{"type":"Feature","geometry":{"type":"Point","coordinates":[121.556536,25.053813]},"properties":{"city":"臺北市","district":"松山區","address":"臺北市松山區延壽街33巷8弄7-1號","coordinate_accuracy":"行政區級近似座標"}},{"type":"Feature","geometry":{"type":"Point","coordinates":[121.564039,25.057159]},"properties":{"city":"臺北市","district":"松山區","address":"臺北市松山區延壽街33巷8弄7-1號","coordinate_accuracy":"行政區級近似座標"}},{"type":"Feature","geometry":{"type":"Point","coordinates":[121.631905,25.038596]},"properties":{"city":"臺北市","district":"南港區","address":"臺北市南港區興華路77號","coordinate_accuracy":"行政區級近似座標"}},{"type":"Feature","geometry":{"type":"Point","coordinates":[121.514084,25.059554]},"properties":{"city":"臺北市","district":"大同區","address":"臺北市大同區承德路三段7號","coordinate_accuracy":"行政區級近似座標"}},{"type":"Feature","geometry":{"type":"Point","coordinates":[121.515572,25.060193]},"properties":{"city":"臺北市","district":"大同區","address":"臺北市大同區承德路三段247巷10號","coordinate_accuracy":"行政區級近似座標"}},{"type":"Feature","geometry":{"type":"Point","coordinates":[121.522302,25.038231]},"properties":{"city":"臺北市","district":"中正區","address":"臺北市中正區羅斯福路一段86號","coordinate_accuracy":"行政區級近似座標"}},{"type":"Feature","geometry":{"type":"Point","coordinates":[121.583778,24.982833]},"properties":{"city":"臺北市","district":"文山區","address":"臺北市文山區景興路282巷9號","coordinate_accuracy":"行政區級近似座標"}},{"type":"Feature","geometry":{"type":"Point","coordinates":[121.537203,25.033148]},"properties":{"city":"臺北市","district":"大安區","address":"臺北市大安區忠孝東路四段2號","coordinate_accuracy":"行政區級近似座標"}},{"type":"Feature","geometry":{"type":"Point","coordinates":[121.559758,25.066088]},"properties":{"city":"臺北市","district":"松山區","address":"臺北市松山區三民路80巷3號","coordinate_accuracy":"行政區級近似座標"}},{"type":"Feature","geometry":{"type":"Point","coordinates":[121.58627,24.993083]},"properties":{"city":"臺北市","district":"文山區","address":"臺北市文山區興隆路四段165巷11號","coordinate_accuracy":"行政區級近似座標"}},{"type":"Feature","geometry":{"type":"Point","coordinates":[121.555318,25.064621]},"properties":{"city":"臺北市","district":"松山區","address":"臺北市松山區延壽街330巷16弄5號","coordinate_accuracy":"行政區級近似座標"}},{"type":"Feature","geometry":{"type":"Point","coordinates":[121.559948,25.068611]},"properties":{"city":"臺北市","district":"松山區","address":"臺北市松山區延壽街330巷16弄5號","coordinate_accuracy":"行政區級近似座標"}},{"type":"Feature","geometry":{"type":"Point","coordinates":[121.493052,25.032828]},"properties":{"city":"臺北市","district":"萬華區","address":"臺北市萬華區萬大路329巷25號","coordinate_accuracy":"行政區級近似座標"}},{"type":"Feature","geometry":{"type":"Point","coordinates":[121.586638,24.9942]},"properties":{"city":"臺北市","district":"文山區","address":"臺北市文山區興隆路四段29巷4弄5-11號","coordinate_accuracy":"行政區級近似座標"}},{"type":"Feature","geometry":{"type":"Point","coordinates":[121.536497,25.019664]},"properties":{"city":"臺北市","district":"大安區","address":"臺北市大安區和平東路3段212巷2號","coordinate_accuracy":"行政區級近似座標"}},{"type":"Feature","geometry":{"type":"Point","coordinates":[121.583221,25.097416]},"properties":{"city":"臺北市","district":"內湖區","address":"臺北市內湖區民權東路6段298-326號","coordinate_accuracy":"行政區級近似座標"}},{"type":"Feature","geometry":{"type":"Point","coordinates":[121.577262,25.073509]},"properties":{"city":"臺北市","district":"內湖區","address":"臺北市內湖區民權東路6段298-326號","coordinate_accuracy":"行政區級近似座標"}},{"type":"Feature","geometry":{"type":"Point","coordinates":[121.600185,25.09336]},"properties":{"city":"臺北市","district":"內湖區","address":"臺北市內湖區民權東路6段298-326號","coordinate_accuracy":"行政區級近似座標"}},{"type":"Feature","geometry":{"type":"Point","coordinates":[121.57789,24.976516]},"properties":{"city":"臺北市","district":"文山區","address":"臺北市文山區興隆路4段105巷3-29號","coordinate_accuracy":"行政區級近似座標"}},{"type":"Feature","geometry":{"type":"Point","coordinates":[121.57333,25.000187]},"properties":{"city":"臺北市","district":"文山區","address":"臺北市文山區興隆路4段105巷3-29號","coordinate_accuracy":"行政區級近似座標"}},{"type":"Feature","geometry":{"type":"Point","coordinates":[121.579594,24.976304]},"properties":{"city":"臺北市","district":"文山區","address":"臺北市文山區興隆路4段105巷3-29號","coordinate_accuracy":"行政區級近似座標"}},{"type":"Feature","geometry":{"type":"Point","coordinates":[121.606536,25.093524]},"properties":{"city":"臺北市","district":"內湖區","address":"臺北市內湖區民權東路六段280巷6號","coordinate_accuracy":"行政區級近似座標"}},{"type":"Feature","geometry":{"type":"Point","coordinates":[121.609517,25.078004]},"properties":{"city":"臺北市","district":"內湖區","address":"臺北市內湖區金龍路222巷2號","coordinate_accuracy":"行政區級近似座標"}},{"type":"Feature","geometry":{"type":"Point","coordinates":[121.584827,25.067334]},"properties":{"city":"臺北市","district":"內湖區","address":"臺北市內湖區金龍路222巷2號","coordinate_accuracy":"行政區級近似座標"}},{"type":"Feature","geometry":{"type":"Point","coordinates":[121.597383,25.100465]},"properties":{"city":"臺北市","district":"內湖區","address":"臺北市內湖區金龍路222巷2號","coordinate_accuracy":"行政區級近似座標"}},{"type":"Feature","geometry":{"type":"Point","coordinates":[121.550497,25.017297]},"properties":{"city":"臺北市","district":"大安區","address":"臺北市大安區敦化南路一段191號","coordinate_accuracy":"行政區級近似座標"}},{"type":"Feature","geometry":{"type":"Point","coordinates":[121.571407,24.999263]},"properties":{"city":"臺北市","district":"文山區","address":"臺北市文山區木新路三段95巷42號","coordinate_accuracy":"行政區級近似座標"}},{"type":"Feature","geometry":{"type":"Point","coordinates":[121.583259,24.999925]},"properties":{"city":"臺北市","district":"文山區","address":"臺北市文山區景華街128巷2弄9-1號","coordinate_accuracy":"行政區級近似座標"}},{"type":"Feature","geometry":{"type":"Point","coordinates":[121.561428,25.052118]},"properties":{"city":"臺北市","district":"松山區","address":"臺北市松山區八德路四段445號","coordinate_accuracy":"行政區級近似座標"}},{"type":"Feature","geometry":{"type":"Point","coordinates":[121.537277,25.168629]},"properties":{"city":"臺北市","district":"北投區","address":"臺北市北投區泉源路36之10-29號","coordinate_accuracy":"行政區級近似座標"}},{"type":"Feature","geometry":{"type":"Point","coordinates":[121.559603,25.068587]},"properties":{"city":"臺北市","district":"中山區","address":"臺北市中山區樂群二路95號","coordinate_accuracy":"行政區級近似座標"}},{"type":"Feature","geometry":{"type":"Point","coordinates":[121.585201,25.068459]},"properties":{"city":"臺北市","district":"內湖區","address":"臺北市內湖區南京東路六段368巷16號","coordinate_accuracy":"行政區級近似座標"}},{"type":"Feature","geometry":{"type":"Point","coordinates":[121.564579,25.055687]},"properties":{"city":"臺北市","district":"松山區","address":"臺北市松山區北寧路62號","coordinate_accuracy":"行政區級近似座標"}},{"type":"Feature","geometry":{"type":"Point","coordinates":[121.552442,25.150496]},"properties":{"city":"臺北市","district":"士林區","address":"臺北市士林區承德路四段181號","coordinate_accuracy":"行政區級近似座標"}},{"type":"Feature","geometry":{"type":"Point","coordinates":[121.513866,25.108407]},"properties":{"city":"臺北市","district":"士林區","address":"臺北市士林區基河路382號","coordinate_accuracy":"行政區級近似座標"}},{"type":"Feature","geometry":{"type":"Point","coordinates":[121.505393,25.023929]},"properties":{"city":"臺北市","district":"萬華區","address":"臺北市萬華區開封街二段12號","coordinate_accuracy":"行政區級近似座標"}},{"type":"Feature","geometry":{"type":"Point","coordinates":[121.494599,25.022866]},"properties":{"city":"臺北市","district":"萬華區","address":"臺北市萬華區漢口街二段49號","coordinate_accuracy":"行政區級近似座標"}},{"type":"Feature","geometry":{"type":"Point","coordinates":[121.504452,25.024798]},"properties":{"city":"臺北市","district":"萬華區","address":"臺北市萬華區長沙街二段96號","coordinate_accuracy":"行政區級近似座標"}},{"type":"Feature","geometry":{"type":"Point","coordinates":[121.489129,25.030589]},"properties":{"city":"臺北市","district":"萬華區","address":"臺北市萬華區德昌街131號","coordinate_accuracy":"行政區級近似座標"}},{"type":"Feature","geometry":{"type":"Point","coordinates":[121.610712,25.040472]},"properties":{"city":"臺北市","district":"南港區","address":"臺北市南港區松河街762號","coordinate_accuracy":"行政區級近似座標"}},{"type":"Feature","geometry":{"type":"Point","coordinates":[121.57914,24.97699]},"properties":{"city":"臺北市","district":"文山區","address":"臺北市文山區政大三街97號","coordinate_accuracy":"行政區級近似座標"}},{"type":"Feature","geometry":{"type":"Point","coordinates":[121.58669,24.988816]},"properties":{"city":"臺北市","district":"文山區","address":"臺北市文山區萬壽路75巷1號","coordinate_accuracy":"行政區級近似座標"}},{"type":"Feature","geometry":{"type":"Point","coordinates":[121.613485,25.028411]},"properties":{"city":"臺北市","district":"南港區","address":"臺北市南港區向陽路182號","coordinate_accuracy":"行政區級近似座標"}},{"type":"Feature","geometry":{"type":"Point","coordinates":[121.493696,25.034652]},"properties":{"city":"臺北市","district":"萬華區","address":"臺北市萬華區中華路一段186號","coordinate_accuracy":"行政區級近似座標"}},{"type":"Feature","geometry":{"type":"Point","coordinates":[121.562716,24.994985]},"properties":{"city":"臺北市","district":"文山區","address":"臺北市文山區秀明路二段118巷1號","coordinate_accuracy":"行政區級近似座標"}},{"type":"Feature","geometry":{"type":"Point","coordinates":[121.578503,25.019425]},"properties":{"city":"臺北市","district":"信義區","address":"臺北市信義區吳興街284巷59弄7號","coordinate_accuracy":"行政區級近似座標"}},{"type":"Feature","geometry":{"type":"Point","coordinates":[121.630474,25.044712]},"properties":{"city":"臺北市","district":"南港區","address":"臺北市南港區重陽路57巷46號","coordinate_accuracy":"行政區級近似座標"}},{"type":"Feature","geometry":{"type":"Point","coordinates":[121.555776,25.153097]},"properties":{"city":"臺北市","district":"士林區","address":"臺北市士林區天母北路68號","coordinate_accuracy":"行政區級近似座標"}},{"type":"Feature","geometry":{"type":"Point","coordinates":[121.518184,25.163026]},"properties":{"city":"臺北市","district":"士林區","address":"臺北市士林區天母北路68號","coordinate_accuracy":"行政區級近似座標"}},{"type":"Feature","geometry":{"type":"Point","coordinates":[121.553185,25.018197]},"properties":{"city":"臺北市","district":"大安區","address":"臺北市大安區信義路四段30巷50弄7號","coordinate_accuracy":"行政區級近似座標"}},{"type":"Feature","geometry":{"type":"Point","coordinates":[121.562458,25.06546]},"properties":{"city":"臺北市","district":"松山區","address":"臺北市松山區南京東路四段52巷8之3號","coordinate_accuracy":"行政區級近似座標"}},{"type":"Feature","geometry":{"type":"Point","coordinates":[121.553502,25.066313]},"properties":{"city":"臺北市","district":"松山區","address":"臺北市松山區光復南路58號","coordinate_accuracy":"行政區級近似座標"}},{"type":"Feature","geometry":{"type":"Point","coordinates":[121.555998,25.069344]},"properties":{"city":"臺北市","district":"松山區","address":"臺北市松山區光復南路17巷17號","coordinate_accuracy":"行政區級近似座標"}},{"type":"Feature","geometry":{"type":"Point","coordinates":[121.510309,25.065828]},"properties":{"city":"臺北市","district":"大同區","address":"臺北市大同區南京西路18巷6號","coordinate_accuracy":"行政區級近似座標"}},{"type":"Feature","geometry":{"type":"Point","coordinates":[121.561682,25.053063]},"properties":{"city":"臺北市","district":"松山區","address":"臺北市松山區南京東路五段405號","coordinate_accuracy":"行政區級近似座標"}},{"type":"Feature","geometry":{"type":"Point","coordinates":[121.575539,25.000368]},"properties":{"city":"臺北市","district":"文山區","address":"臺北市文山區羅斯福路五段214號","coordinate_accuracy":"行政區級近似座標"}},{"type":"Feature","geometry":{"type":"Point","coordinates":[121.575385,25.000171]},"properties":{"city":"臺北市","district":"文山區","address":"臺北市文山區政大一街36巷5號","coordinate_accuracy":"行政區級近似座標"}},{"type":"Feature","geometry":{"type":"Point","coordinates":[121.587403,24.986426]},"properties":{"city":"臺北市","district":"文山區","address":"臺北市文山區政大一街36巷5號","coordinate_accuracy":"行政區級近似座標"}},{"type":"Feature","geometry":{"type":"Point","coordinates":[121.589807,24.99223]},"properties":{"city":"臺北市","district":"文山區","address":"臺北市文山區興隆路二段301巷18號","coordinate_accuracy":"行政區級近似座標"}},{"type":"Feature","geometry":{"type":"Point","coordinates":[121.562772,24.988229]},"properties":{"city":"臺北市","district":"文山區","address":"臺北市文山區興隆路二段301巷18號","coordinate_accuracy":"行政區級近似座標"}},{"type":"Feature","geometry":{"type":"Point","coordinates":[121.579302,24.972995]},"properties":{"city":"臺北市","district":"文山區","address":"臺北市文山區興隆路三段304巷151號","coordinate_accuracy":"行政區級近似座標"}},{"type":"Feature","geometry":{"type":"Point","coordinates":[121.581636,24.998525]},"properties":{"city":"臺北市","district":"文山區","address":"臺北市文山區興隆路四段6號","coordinate_accuracy":"行政區級近似座標"}},{"type":"Feature","geometry":{"type":"Point","coordinates":[121.552358,25.03101]},"properties":{"city":"臺北市","district":"大安區","address":"臺北市大安區光復南路306號","coordinate_accuracy":"行政區級近似座標"}},{"type":"Feature","geometry":{"type":"Point","coordinates":[121.52818,25.130369]},"properties":{"city":"臺北市","district":"北投區","address":"臺北市北投區中央南路二段33號之一","coordinate_accuracy":"行政區級近似座標"}},{"type":"Feature","geometry":{"type":"Point","coordinates":[121.502908,25.17494]},"properties":{"city":"臺北市","district":"北投區","address":"臺北市北投區中央北路三段6號","coordinate_accuracy":"行政區級近似座標"}},{"type":"Feature","geometry":{"type":"Point","coordinates":[121.538571,25.168815]},"properties":{"city":"臺北市","district":"北投區","address":"臺北市北投區石牌路一段166巷43弄15號","coordinate_accuracy":"行政區級近似座標"}},{"type":"Feature","geometry":{"type":"Point","coordinates":[121.489869,25.16483]},"properties":{"city":"臺北市","district":"北投區","address":"臺北市北投區洲美街122號2樓","coordinate_accuracy":"行政區級近似座標"}},{"type":"Feature","geometry":{"type":"Point","coordinates":[121.489008,25.163381]},"properties":{"city":"臺北市","district":"北投區","address":"臺北市北投區竹子湖路35號之一","coordinate_accuracy":"行政區級近似座標"}},{"type":"Feature","geometry":{"type":"Point","coordinates":[121.478129,25.154217]},"properties":{"city":"臺北市","district":"北投區","address":"臺北市北投區竹子湖路35號之一","coordinate_accuracy":"行政區級近似座標"}},{"type":"Feature","geometry":{"type":"Point","coordinates":[121.554231,25.066431]},"properties":{"city":"臺北市","district":"松山區","address":"臺北市松山區南京東路五段47號","coordinate_accuracy":"行政區級近似座標"}},{"type":"Feature","geometry":{"type":"Point","coordinates":[121.55586,25.066992]},"properties":{"city":"臺北市","district":"松山區","address":"臺北市松山區南京東路五段47號","coordinate_accuracy":"行政區級近似座標"}},{"type":"Feature","geometry":{"type":"Point","coordinates":[121.510292,25.060394]},"properties":{"city":"臺北市","district":"大同區","address":"臺北市大同區承德路三段165之1號","coordinate_accuracy":"行政區級近似座標"}},{"type":"Feature","geometry":{"type":"Point","coordinates":[121.519122,25.062187]},"properties":{"city":"臺北市","district":"大同區","address":"臺北市大同區承德路三段152號","coordinate_accuracy":"行政區級近似座標"}},{"type":"Feature","geometry":{"type":"Point","coordinates":[121.511702,25.06914]},"properties":{"city":"臺北市","district":"大同區","address":"臺北市大同區重慶北路三段63號","coordinate_accuracy":"行政區級近似座標"}},{"type":"Feature","geometry":{"type":"Point","coordinates":[121.550727,25.058698]},"properties":{"city":"臺北市","district":"松山區","address":"臺北市松山區南京東路四段23號","coordinate_accuracy":"行政區級近似座標"}},{"type":"Feature","geometry":{"type":"Point","coordinates":[121.606243,25.078022]},"properties":{"city":"臺北市","district":"內湖區","address":"臺北市內湖區成功路二段193巷8號","coordinate_accuracy":"行政區級近似座標"}},{"type":"Feature","geometry":{"type":"Point","coordinates":[121.55276,25.056213]},"properties":{"city":"臺北市","district":"松山區","address":"臺北市松山區復興北路427巷11號","coordinate_accuracy":"行政區級近似座標"}},{"type":"Feature","geometry":{"type":"Point","coordinates":[121.556729,25.066794]},"properties":{"city":"臺北市","district":"松山區","address":"臺北市松山區復興北路427巷11號","coordinate_accuracy":"行政區級近似座標"}},{"type":"Feature","geometry":{"type":"Point","coordinates":[121.555689,25.053841]},"properties":{"city":"臺北市","district":"松山區","address":"臺北市松山區復興北路427巷30號","coordinate_accuracy":"行政區級近似座標"}},{"type":"Feature","geometry":{"type":"Point","coordinates":[121.579096,25.020953]},"properties":{"city":"臺北市","district":"信義區","address":"臺北市信義區松德路307巷26號","coordinate_accuracy":"行政區級近似座標"}},{"type":"Feature","geometry":{"type":"Point","coordinates":[121.580595,25.025303]},"properties":{"city":"臺北市","district":"信義區","address":"臺北市信義區松德路307巷26號","coordinate_accuracy":"行政區級近似座標"}},{"type":"Feature","geometry":{"type":"Point","coordinates":[121.57748,25.036342]},"properties":{"city":"臺北市","district":"信義區","address":"臺北市信義區松德路307巷26號","coordinate_accuracy":"行政區級近似座標"}},{"type":"Feature","geometry":{"type":"Point","coordinates":[121.575473,25.04003]},"properties":{"city":"臺北市","district":"信義區","address":"臺北市信義區松德路200巷8號","coordinate_accuracy":"行政區級近似座標"}},{"type":"Feature","geometry":{"type":"Point","coordinates":[121.561351,25.030983]},"properties":{"city":"臺北市","district":"信義區","address":"臺北市信義區松德路200巷8號","coordinate_accuracy":"行政區級近似座標"}},{"type":"Feature","geometry":{"type":"Point","coordinates":[121.584558,25.026631]},"properties":{"city":"臺北市","district":"信義區","address":"臺北市信義區松德路200巷8號","coordinate_accuracy":"行政區級近似座標"}},{"type":"Feature","geometry":{"type":"Point","coordinates":[121.583211,25.0327]},"properties":{"city":"臺北市","district":"信義區","address":"臺北市信義區松德路25巷2號","coordinate_accuracy":"行政區級近似座標"}},{"type":"Feature","geometry":{"type":"Point","coordinates":[121.567562,25.039795]},"properties":{"city":"臺北市","district":"信義區","address":"臺北市信義區松德路135號","coordinate_accuracy":"行政區級近似座標"}},{"type":"Feature","geometry":{"type":"Point","coordinates":[121.57444,25.018487]},"properties":{"city":"臺北市","district":"信義區","address":"臺北市信義區松德路170號","coordinate_accuracy":"行政區級近似座標"}},{"type":"Feature","geometry":{"type":"Point","coordinates":[121.551918,25.077127]},"properties":{"city":"臺北市","district":"中山區","address":"臺北市中山區長安東路二段113號","coordinate_accuracy":"行政區級近似座標"}},{"type":"Feature","geometry":{"type":"Point","coordinates":[121.561726,25.034788]},"properties":{"city":"臺北市","district":"信義區","address":"臺北市信義區松仁路153號","coordinate_accuracy":"行政區級近似座標"}},{"type":"Feature","geometry":{"type":"Point","coordinates":[121.569457,25.041809]},"properties":{"city":"臺北市","district":"信義區","address":"臺北市信義區松仁路151-1號","coordinate_accuracy":"行政區級近似座標"}},{"type":"Feature","geometry":{"type":"Point","coordinates":[121.537076,25.061479]},"properties":{"city":"臺北市","district":"中山區","address":"臺北市中山區北安路618號","coordinate_accuracy":"行政區級近似座標"}},{"type":"Feature","geometry":{"type":"Point","coordinates":[121.562403,25.121227]},"properties":{"city":"臺北市","district":"士林區","address":"臺北市士林區士商路15號","coordinate_accuracy":"行政區級近似座標"}},{"type":"Feature","geometry":{"type":"Point","coordinates":[121.54226,25.078163]},"properties":{"city":"臺北市","district":"中山區","address":"臺北市中山區長安東路二段162-1號","coordinate_accuracy":"行政區級近似座標"}},{"type":"Feature","geometry":{"type":"Point","coordinates":[121.629806,25.023877]},"properties":{"city":"臺北市","district":"南港區","address":"臺北市南港區重陽路39巷86-88號","coordinate_accuracy":"行政區級近似座標"}},{"type":"Feature","geometry":{"type":"Point","coordinates":[121.53826,25.033451]},"properties":{"city":"臺北市","district":"大安區","address":"臺北市大安區光復南路98號","coordinate_accuracy":"行政區級近似座標"}},{"type":"Feature","geometry":{"type":"Point","coordinates":[121.581659,25.07086]},"properties":{"city":"臺北市","district":"內湖區","address":"臺北市內湖區內湖路二段253巷28號","coordinate_accuracy":"行政區級近似座標"}},{"type":"Feature","geometry":{"type":"Point","coordinates":[121.551407,25.082172]},"properties":{"city":"臺北市","district":"中山區","address":"臺北市中山區長安東路一段20號","coordinate_accuracy":"行政區級近似座標"}},{"type":"Feature","geometry":{"type":"Point","coordinates":[121.609312,25.038362]},"properties":{"city":"臺北市","district":"南港區","address":"臺北市南港區福德街322號","coordinate_accuracy":"行政區級近似座標"}},{"type":"Feature","geometry":{"type":"Point","coordinates":[121.565771,25.149748]},"properties":{"city":"臺北市","district":"士林區","address":"臺北市士林區雨農路62號","coordinate_accuracy":"行政區級近似座標"}},{"type":"Feature","geometry":{"type":"Point","coordinates":[121.554122,25.028508]},"properties":{"city":"臺北市","district":"大安區","address":"台北市大安區和平東路一段59號","coordinate_accuracy":"行政區級近似座標"}},{"type":"Feature","geometry":{"type":"Point","coordinates":[121.519378,25.061329]},"properties":{"city":"臺北市","district":"大同區","address":"五原路17號或19號","coordinate_accuracy":"行政區級近似座標"}},{"type":"Feature","geometry":{"type":"Point","coordinates":[121.553298,25.1151]},"properties":{"city":"臺北市","district":"士林區","address":"仰德大道3段125巷5弄31號","coordinate_accuracy":"行政區級近似座標"}},{"type":"Feature","geometry":{"type":"Point","coordinates":[121.511237,25.11476]},"properties":{"city":"臺北市","district":"士林區","address":"天母西路50巷11號1樓","coordinate_accuracy":"行政區級近似座標"}},{"type":"Feature","geometry":{"type":"Point","coordinates":[121.582204,24.970573]},"properties":{"city":"臺北市","district":"文山區","address":"文山區興隆路4段58巷16弄8號6樓","coordinate_accuracy":"行政區級近似座標"}},{"type":"Feature","geometry":{"type":"Point","coordinates":[121.504622,25.03353]},"properties":{"city":"臺北市","district":"萬華區","address":"德昌街131號","coordinate_accuracy":"行政區級近似座標"}},{"type":"Feature","geometry":{"type":"Point","coordinates":[121.580787,25.094271]},"properties":{"city":"臺北市","district":"內湖區","address":"東湖路118號","coordinate_accuracy":"行政區級近似座標"}},{"type":"Feature","geometry":{"type":"Point","coordinates":[121.533846,25.019709]},"properties":{"city":"臺北市","district":"大安區","address":"忠孝東路4段285號","coordinate_accuracy":"行政區級近似座標"}},{"type":"Feature","geometry":{"type":"Point","coordinates":[121.541031,25.054387]},"properties":{"city":"臺北市","district":"中山區","address":"長春路219號","coordinate_accuracy":"行政區級近似座標"}},{"type":"Feature","geometry":{"type":"Point","coordinates":[121.530328,25.029365]},"properties":{"city":"臺北市","district":"中正區","address":"臨沂街57巷36號","coordinate_accuracy":"行政區級近似座標"}},{"type":"Feature","geometry":{"type":"Point","coordinates":[121.539775,25.05635]},"properties":{"city":"臺北市","district":"中山區","address":"民生東路三段88巷2號1樓","coordinate_accuracy":"行政區級近似座標"}},{"type":"Feature","geometry":{"type":"Point","coordinates":[121.558667,25.077426]},"properties":{"city":"臺北市","district":"中山區","address":"復興北路228號","coordinate_accuracy":"行政區級近似座標"}},{"type":"Feature","geometry":{"type":"Point","coordinates":[121.584737,24.977301]},"properties":{"city":"臺北市","district":"文山區","address":"樟新街32巷22號","coordinate_accuracy":"行政區級近似座標"}}]}
