{
  "type": "FeatureCollection",
  "name": "scooter_charging_station_approximate_points",
  "metadata": {
    "coordinate_note": "行政區級近似座標：由行政區中心點加固定偏移產生，非實際門牌座標。"
  },
  "features": [
    {
      "type": "Feature",
      "geometry": {
        "type": "Point",
        "coordinates": [
          121.493488,
          25.028249
        ]
      },
      "properties": {
        "id": "1",
        "name": "環南市場西一門超級充電站",
        "operator": "中華汽車",
        "address": "臺北市萬華區環河南路二段245號",
        "city": "臺北市",
        "district": "萬華區",
        "station_type": null,
        "operational_status": null,
        "fee_applicable": null,
        "open_to_public": null,
        "plug_type": null,
        "connector_count": null,
        "coordinate_accuracy": "行政區級近似座標"
      }
    },
    {
      "type": "Feature",
      "geometry": {
        "type": "Point",
        "coordinates": [
          121.558446,
          25.053392
        ]
      },
      "properties": {
        "id": "2",
        "name": "家樂福三民店超級充電站",
        "operator": "中華汽車",
        "address": "臺北市松山區三民路160號",
        "city": "臺北市",
        "district": "松山區",
        "station_type": null,
        "operational_status": null,
        "fee_applicable": null,
        "open_to_public": null,
        "plug_type": null,
        "connector_count": null,
        "coordinate_accuracy": "行政區級近似座標"
      }
    },
    {
      "type": "Feature",
      "geometry": {
        "type": "Point",
        "coordinates": [
          121.589693,
          25.071296
        ]
      },
      "properties": {
        "id": "3",
        "name": "家樂福內湖超級充電站",
        "operator": "中華汽車",
        "address": "臺北市內湖區民善街88號",
        "city": "臺北市",
        "district": "內湖區",
        "station_type": null,
        "operational_status": null,
        "fee_applicable": null,
        "open_to_public": null,
        "plug_type": null,
        "connector_count": null,
        "coordinate_accuracy": "行政區級近似座標"
      }
    },
    {
      "type": "Feature",
      "geometry": {
        "type": "Point",
        "coordinates": [
          121.507825,
          25.064749
        ]
      },
      "properties": {
        "id": "4",
        "name": "家樂福重慶超級充電站",
        "operator": "中華汽車",
        "address": "臺北市大同區重慶北路二段171號",
        "city": "臺北市",
        "district": "大同區",
        "station_type": null,
        "operational_status": null,
        "fee_applicable": null,
        "open_to_public": null,
        "plug_type": null,
        "connector_count": null,
        "coordinate_accuracy": "行政區級近似座標"
      }
    },
    {
      "type": "Feature",
      "geometry": {
        "type": "Point",
        "coordinates": [
          121.605781,
          25.074953
        ]
      },
      "properties": {
        "id": "5",
        "name": "順益汽車內湖所超級充電站",
        "operator": "中華汽車",
        "address": "臺北市內湖區民權東路六段13之15號",
        "city": "臺北市",
        "district": "內湖區",
        "station_type": null,
        "operational_status": null,
        "fee_applicable": null,
        "open_to_public": null,
        "plug_type": null,
        "connector_count": null,
        "coordinate_accuracy": "行政區級近似座標"
      }
    },
    {
      "type": "Feature",
      "geometry": {
        "type": "Point",
        "coordinates": [
          121.552881,
          25.073064
        ]
      },
      "properties": {
        "id": "6",
        "name": "中華汽車濱江大樓超級充電站",
        "operator": "中華汽車",
        "address": "臺北市中山區濱江街309號",
        "city": "臺北市",
        "district": "中山區",
        "station_type": null,
        "operational_status": null,
        "fee_applicable": null,
        "open_to_public": null,
        "plug_type": null,
        "connector_count": null,
        "coordinate_accuracy": "行政區級近似座標"
      }
    },
    {
      "type": "Feature",
      "geometry": {
        "type": "Point",
        "coordinates": [
          121.49366,
          25.023177
        ]
      },
      "properties": {
        "id": "7",
        "name": "萬華和平西專賣店超級充電站",
        "operator": "中華汽車",
        "address": "臺北市萬華區和平西路二段149號",
        "city": "臺北市",
        "district": "萬華區",
        "station_type": null,
        "operational_status": null,
        "fee_applicable": null,
        "open_to_public": null,
        "plug_type": null,
        "connector_count": null,
        "coordinate_accuracy": "行政區級近似座標"
      }
    },
    {
      "type": "Feature",
      "geometry": {
        "type": "Point",
        "coordinates": [
          121.54384,
          25.05774
        ]
      },
      "properties": {
        "id": "8",
        "name": "中崙站",
        "operator": "中油",
        "address": "台北市中山區八德路二段214號",
        "city": "臺北市",
        "district": "中山區",
        "station_type": null,
        "operational_status": null,
        "fee_applicable": null,
        "open_to_public": null,
        "plug_type": null,
        "connector_count": null,
        "coordinate_accuracy": "行政區級近似座標"
      }
    },
    {
      "type": "Feature",
      "geometry": {
        "type": "Point",
        "coordinates": [
          121.605164,
          25.087488
        ]
      },
      "properties": {
        "id": "9",
        "name": "內湖站",
        "operator": "中油",
        "address": "台北市內湖區民權東路六段50號",
        "city": "臺北市",
        "district": "內湖區",
        "station_type": null,
        "operational_status": null,
        "fee_applicable": null,
        "open_to_public": null,
        "plug_type": null,
        "connector_count": null,
        "coordinate_accuracy": "行政區級近似座標"
      }
    },
    {
      "type": "Feature",
      "geometry": {
        "type": "Point",
        "coordinates": [
          121.542858,
          25.016232
        ]
      },
      "properties": {
        "id": "10",
        "name": "信義路站",
        "operator": "中油",
        "address": "台北市大安區信義路四段374號",
        "city": "臺北市",
        "district": "大安區",
        "station_type": null,
        "operational_status": null,
        "fee_applicable": null,
        "open_to_public": null,
        "plug_type": null,
        "connector_count": null,
        "coordinate_accuracy": "行政區級近似座標"
      }
    },
    {
      "type": "Feature",
      "geometry": {
        "type": "Point",
        "coordinates": [
          121.555955,
          25.05221
        ]
      },
      "properties": {
        "id": "11",
        "name": "民生東路站",
        "operator": "中油",
        "address": "台北市松山區三民路126號",
        "city": "臺北市",
        "district": "松山區",
        "station_type": null,
        "operational_status": null,
        "fee_applicable": null,
        "open_to_public": null,
        "plug_type": null,
        "connector_count": null,
        "coordinate_accuracy": "行政區級近似座標"
      }
    },
    {
      "type": "Feature",
      "geometry": {
        "type": "Point",
        "coordinates": [
          121.507179,
          25.147679
        ]
      },
      "properties": {
        "id": "12",
        "name": "文林路站",
        "operator": "中油",
        "address": "台北市士林區文林路100號",
        "city": "臺北市",
        "district": "士林區",
        "station_type": null,
        "operational_status": null,
        "fee_applicable": null,
        "open_to_public": null,
        "plug_type": null,
        "connector_count": null,
        "coordinate_accuracy": "行政區級近似座標"
      }
    },
    {
      "type": "Feature",
      "geometry": {
        "type": "Point",
        "coordinates": [
          121.434143,
          24.861254
        ]
      },
      "properties": {
        "id": "NTPC-1",
        "name": "巴黎花都社區",
        "operator": null,
        "address": "新北市三峽區學成路265號",
        "city": "新北市",
        "district": "三峽區",
        "station_type": "社區大樓",
        "operational_status": "良好",
        "fee_applicable": "Y",
        "open_to_public": "N",
        "plug_type": "充電箱",
        "connector_count": "4",
        "coordinate_accuracy": "行政區級近似座標"
      }
    },
    {
      "type": "Feature",
      "geometry": {
        "type": "Point",
        "coordinates": [
          121.478781,
          25.095231
        ]
      },
      "properties": {
        "id": "NTPC-2",
        "name": "知森堂社區",
        "operator": null,
        "address": "新北市蘆洲區光榮路120巷8弄33號",
        "city": "新北市",
        "district": "蘆洲區",
        "station_type": "社區大樓",
        "operational_status": "良好",
        "fee_applicable": "Y",
        "open_to_public": "N",
        "plug_type": "無",
        "connector_count": "1",
        "coordinate_accuracy": "行政區級近似座標"
      }
    },
    {
      "type": "Feature",
      "geometry": {
        "type": "Point",
        "coordinates": [
          121.429976,
          25.04262
        ]
      },
      "properties": {
        "id": "NTPC-3",
        "name": "都市特區",
        "operator": null,
        "address": "新北市新莊區中平路270號7弄12號8樓",
        "city": "新北市",
        "district": "新莊區",
        "station_type": "社區大樓",
        "operational_status": "良好",
        "fee_applicable": "Y",
        "open_to_public": "N",
        "plug_type": "充電箱",
        "connector_count": "5",
        "coordinate_accuracy": "行政區級近似座標"
      }
    },
    {
      "type": "Feature",
      "geometry": {
        "type": "Point",
        "coordinates": [
          121.419778,
          25.020552
        ]
      },
      "properties": {
        "id": "NTPC-4",
        "name": "歐洲之星社區",
        "operator": null,
        "address": "新北市新莊區中原路193-203號",
        "city": "新北市",
        "district": "新莊區",
        "station_type": "社區大樓",
        "operational_status": "良好",
        "fee_applicable": "Y",
        "open_to_public": "N",
        "plug_type": "充電箱",
        "connector_count": "2",
        "coordinate_accuracy": "行政區級近似座標"
      }
    },
    {
      "type": "Feature",
      "geometry": {
        "type": "Point",
        "coordinates": [
          121.439443,
          25.019392
        ]
      },
      "properties": {
        "id": "NTPC-5",
        "name": "峰景鳳翔社區管理委員會",
        "operator": null,
        "address": "新北市新莊區中正路７０６號１樓",
        "city": "新北市",
        "district": "新莊區",
        "station_type": "社區大樓",
        "operational_status": "良好",
        "fee_applicable": "Y",
        "open_to_public": "N",
        "plug_type": "充電箱",
        "connector_count": "4",
        "coordinate_accuracy": "行政區級近似座標"
      }
    },
    {
      "type": "Feature",
      "geometry": {
        "type": "Point",
        "coordinates": [
          121.399531,
          24.991012
        ]
      },
      "properties": {
        "id": "NTPC-6",
        "name": "愛在歐洲社區",
        "operator": null,
        "address": "新北市樹林區大成路20-1號",
        "city": "新北市",
        "district": "樹林區",
        "station_type": "社區大樓",
        "operational_status": "良好",
        "fee_applicable": "Y",
        "open_to_public": "N",
        "plug_type": "充電箱",
        "connector_count": "5",
        "coordinate_accuracy": "行政區級近似座標"
      }
    },
    {
      "type": "Feature",
      "geometry": {
        "type": "Point",
        "coordinates": [
          121.490087,
          24.985093
        ]
      },
      "properties": {
        "id": "NTPC-7",
        "name": "泰和園",
        "operator": null,
        "address": "新北市中和區泰和街1號",
        "city": "新北市",
        "district": "中和區",
        "station_type": "社區大樓",
        "operational_status": "良好",
        "fee_applicable": "Y",
        "open_to_public": "N",
        "plug_type": "充電箱",
        "connector_count": "1",
        "coordinate_accuracy": "行政區級近似座標"
      }
    },
    {
      "type": "Feature",
      "geometry": {
        "type": "Point",
        "coordinates": [
          121.411437,
          24.971462
        ]
      },
      "properties": {
        "id": "NTPC-8",
        "name": "遠雄紫京城社區",
        "operator": null,
        "address": "新北市樹林區學勤路500號",
        "city": "新北市",
        "district": "樹林區",
        "station_type": "社區大樓",
        "operational_status": "良好",
        "fee_applicable": "Y",
        "open_to_public": "N",
        "plug_type": "無",
        "connector_count": "2",
        "coordinate_accuracy": "行政區級近似座標"
      }
    },
    {
      "type": "Feature",
      "geometry": {
        "type": "Point",
        "coordinates": [
          121.454019,
          25.083995
        ]
      },
      "properties": {
        "id": "NTPC-9",
        "name": "五股區公所",
        "operator": null,
        "address": "新北市五股區中興路四段50號",
        "city": "新北市",
        "district": "五股區",
        "station_type": "公務機關-區公所",
        "operational_status": "良好",
        "fee_applicable": "N",
        "open_to_public": "Y",
        "plug_type": "充電箱",
        "connector_count": "2",
        "coordinate_accuracy": "行政區級近似座標"
      }
    },
    {
      "type": "Feature",
      "geometry": {
        "type": "Point",
        "coordinates": [
          121.577966,
          25.240368
        ]
      },
      "properties": {
        "id": "NTPC-10",
        "name": "石門區公所",
        "operator": null,
        "address": "新北市石門區中山路66號(石門區公所)",
        "city": "新北市",
        "district": "石門區",
        "station_type": "公務機關-區公所",
        "operational_status": "良好",
        "fee_applicable": "N",
        "open_to_public": "Y",
        "plug_type": "充電座",
        "connector_count": "6",
        "coordinate_accuracy": "行政區級近似座標"
      }
    },
    {
      "type": "Feature",
      "geometry": {
        "type": "Point",
        "coordinates": [
          121.968436,
          25.043799
        ]
      },
      "properties": {
        "id": "NTPC-11",
        "name": "貢寮區公所",
        "operator": null,
        "address": "新北市貢寮區朝陽街54號",
        "city": "新北市",
        "district": "貢寮區",
        "station_type": "公務機關-區公所",
        "operational_status": "良好",
        "fee_applicable": "N",
        "open_to_public": "Y",
        "plug_type": "插頭式",
        "connector_count": "2",
        "coordinate_accuracy": "行政區級近似座標"
      }
    },
    {
      "type": "Feature",
      "geometry": {
        "type": "Point",
        "coordinates": [
          121.416596,
          25.0222
        ]
      },
      "properties": {
        "id": "NTPC-12",
        "name": "新莊區公所",
        "operator": null,
        "address": "新北市新莊區中正路176號",
        "city": "新北市",
        "district": "新莊區",
        "station_type": "公務機關-區公所",
        "operational_status": "良好",
        "fee_applicable": "N",
        "open_to_public": "N",
        "plug_type": "充電箱",
        "connector_count": "4",
        "coordinate_accuracy": "行政區級近似座標"
      }
    },
    {
      "type": "Feature",
      "geometry": {
        "type": "Point",
        "coordinates": [
          121.647484,
          25.154216
        ]
      },
      "properties": {
        "id": "NTPC-13",
        "name": "萬里區公所",
        "operator": null,
        "address": "新北市萬里區瑪鋉路123號",
        "city": "新北市",
        "district": "萬里區",
        "station_type": "公務機關-區公所",
        "operational_status": "良好",
        "fee_applicable": "N",
        "open_to_public": "Y",
        "plug_type": "充電箱",
        "connector_count": "2",
        "coordinate_accuracy": "行政區級近似座標"
      }
    },
    {
      "type": "Feature",
      "geometry": {
        "type": "Point",
        "coordinates": [
          121.510015,
          24.987916
        ]
      },
      "properties": {
        "id": "NTPC-14",
        "name": "中和區公所",
        "operator": null,
        "address": "新北市中和區景平路634之2號",
        "city": "新北市",
        "district": "中和區",
        "station_type": "公務機關-區公所",
        "operational_status": "良好",
        "fee_applicable": "N",
        "open_to_public": "Y",
        "plug_type": "充電箱",
        "connector_count": "2",
        "coordinate_accuracy": "行政區級近似座標"
      }
    },
    {
      "type": "Feature",
      "geometry": {
        "type": "Point",
        "coordinates": [
          121.553697,
          24.897229
        ]
      },
      "properties": {
        "id": "NTPC-15",
        "name": "新店區公所",
        "operator": null,
        "address": "新北市新店區北新路一段80號",
        "city": "新北市",
        "district": "新店區",
        "station_type": "公務機關-區公所",
        "operational_status": "良好",
        "fee_applicable": "N",
        "open_to_public": "Y",
        "plug_type": "充電座",
        "connector_count": "8",
        "coordinate_accuracy": "行政區級近似座標"
      }
    },
    {
      "type": "Feature",
      "geometry": {
        "type": "Point",
        "coordinates": [
          121.46582,
          25.021978
        ]
      },
      "properties": {
        "id": "NTPC-16",
        "name": "板橋區公所",
        "operator": null,
        "address": "新北市板橋區府中路30號",
        "city": "新北市",
        "district": "板橋區",
        "station_type": "公務機關-區公所",
        "operational_status": "良好",
        "fee_applicable": "N",
        "open_to_public": "Y",
        "plug_type": "插頭式",
        "connector_count": "2",
        "coordinate_accuracy": "行政區級近似座標"
      }
    },
    {
      "type": "Feature",
      "geometry": {
        "type": "Point",
        "coordinates": [
          121.810715,
          25.076664
        ]
      },
      "properties": {
        "id": "NTPC-17",
        "name": "瑞芳區公所",
        "operator": null,
        "address": "新北市瑞芳區逢甲路82號",
        "city": "新北市",
        "district": "瑞芳區",
        "station_type": "公務機關-區公所",
        "operational_status": "良好",
        "fee_applicable": "N",
        "open_to_public": "Y",
        "plug_type": "插頭式",
        "connector_count": "1",
        "coordinate_accuracy": "行政區級近似座標"
      }
    },
    {
      "type": "Feature",
      "geometry": {
        "type": "Point",
        "coordinates": [
          121.380907,
          24.963728
        ]
      },
      "properties": {
        "id": "NTPC-18",
        "name": "樹林區公所",
        "operator": null,
        "address": "新北市樹林區鎮前街93號",
        "city": "新北市",
        "district": "樹林區",
        "station_type": "公務機關-區公所",
        "operational_status": "良好",
        "fee_applicable": "N",
        "open_to_public": "Y",
        "plug_type": "充電箱",
        "connector_count": "2",
        "coordinate_accuracy": "行政區級近似座標"
      }
    },
    {
      "type": "Feature",
      "geometry": {
        "type": "Point",
        "coordinates": [
          121.416653,
          24.834255
        ]
      },
      "properties": {
        "id": "NTPC-19",
        "name": "三峽區公所",
        "operator": null,
        "address": "新北市三峽區中山路17號",
        "city": "新北市",
        "district": "三峽區",
        "station_type": "公務機關-區公所",
        "operational_status": "良好",
        "fee_applicable": "N",
        "open_to_public": "Y",
        "plug_type": "充電箱",
        "connector_count": "2",
        "coordinate_accuracy": "行政區級近似座標"
      }
    },
    {
      "type": "Feature",
      "geometry": {
        "type": "Point",
        "coordinates": [
          121.505496,
          25.005346
        ]
      },
      "properties": {
        "id": "NTPC-20",
        "name": "永和區公所",
        "operator": null,
        "address": "新北市永和區竹林路200號",
        "city": "新北市",
        "district": "永和區",
        "station_type": "公務機關-區公所",
        "operational_status": "良好",
        "fee_applicable": "N",
        "open_to_public": "Y",
        "plug_type": "充電箱",
        "connector_count": "2",
        "coordinate_accuracy": "行政區級近似座標"
      }
    },
    {
      "type": "Feature",
      "geometry": {
        "type": "Point",
        "coordinates": [
          121.692889,
          25.102917
        ]
      },
      "properties": {
        "id": "NTPC-21",
        "name": "汐止區公所",
        "operator": null,
        "address": "新北市汐止區新台五路1段268號",
        "city": "新北市",
        "district": "汐止區",
        "station_type": "公務機關-區公所",
        "operational_status": "良好",
        "fee_applicable": "N",
        "open_to_public": "Y",
        "plug_type": "充電箱",
        "connector_count": "2",
        "coordinate_accuracy": "行政區級近似座標"
      }
    },
    {
      "type": "Feature",
      "geometry": {
        "type": "Point",
        "coordinates": [
          121.634547,
          25.003807
        ]
      },
      "properties": {
        "id": "NTPC-22",
        "name": "深坑區公所",
        "operator": null,
        "address": "新北市深坑區深坑街10號",
        "city": "新北市",
        "district": "深坑區",
        "station_type": "公務機關-區公所",
        "operational_status": "良好",
        "fee_applicable": "N",
        "open_to_public": "Y",
        "plug_type": "充電箱",
        "connector_count": "2",
        "coordinate_accuracy": "行政區級近似座標"
      }
    },
    {
      "type": "Feature",
      "geometry": {
        "type": "Point",
        "coordinates": [
          121.387014,
          25.137077
        ]
      },
      "properties": {
        "id": "NTPC-23",
        "name": "八里區公所",
        "operator": null,
        "address": "新北市八里區中山路2段356巷16號",
        "city": "新北市",
        "district": "八里區",
        "station_type": "公務機關-區公所",
        "operational_status": "良好",
        "fee_applicable": "N",
        "open_to_public": "Y",
        "plug_type": "充電箱",
        "connector_count": "2",
        "coordinate_accuracy": "行政區級近似座標"
      }
    },
    {
      "type": "Feature",
      "geometry": {
        "type": "Point",
        "coordinates": [
          121.331372,
          25.112844
        ]
      },
      "properties": {
        "id": "NTPC-24",
        "name": "林口區公所",
        "operator": null,
        "address": "新北市林口區仁愛路1段378號",
        "city": "新北市",
        "district": "林口區",
        "station_type": "公務機關-區公所",
        "operational_status": "良好",
        "fee_applicable": "N",
        "open_to_public": "Y",
        "plug_type": "充電箱",
        "connector_count": "2",
        "coordinate_accuracy": "行政區級近似座標"
      }
    },
    {
      "type": "Feature",
      "geometry": {
        "type": "Point",
        "coordinates": [
          121.399562,
          25.044062
        ]
      },
      "properties": {
        "id": "NTPC-25",
        "name": "泰山區公所",
        "operator": null,
        "address": "新北市泰山區明志路1段322號",
        "city": "新北市",
        "district": "泰山區",
        "station_type": "公務機關-區公所",
        "operational_status": "良好",
        "fee_applicable": "N",
        "open_to_public": "Y",
        "plug_type": "充電箱",
        "connector_count": "2",
        "coordinate_accuracy": "行政區級近似座標"
      }
    },
    {
      "type": "Feature",
      "geometry": {
        "type": "Point",
        "coordinates": [
          121.339538,
          24.942351
        ]
      },
      "properties": {
        "id": "NTPC-26",
        "name": "鶯歌區公所",
        "operator": null,
        "address": "新北市鶯歌區仁愛路55號",
        "city": "新北市",
        "district": "鶯歌區",
        "station_type": "公務機關-區公所",
        "operational_status": "良好",
        "fee_applicable": "N",
        "open_to_public": "Y",
        "plug_type": "充電箱",
        "connector_count": "4",
        "coordinate_accuracy": "行政區級近似座標"
      }
    },
    {
      "type": "Feature",
      "geometry": {
        "type": "Point",
        "coordinates": [
          121.6237,
          25.238603
        ]
      },
      "properties": {
        "id": "NTPC-27",
        "name": "金山區公所",
        "operator": null,
        "address": "新北市金山區金美里中正路11號",
        "city": "新北市",
        "district": "金山區",
        "station_type": "公務機關-區公所",
        "operational_status": "良好",
        "fee_applicable": "N",
        "open_to_public": "Y",
        "plug_type": "充電箱",
        "connector_count": "2",
        "coordinate_accuracy": "行政區級近似座標"
      }
    },
    {
      "type": "Feature",
      "geometry": {
        "type": "Point",
        "coordinates": [
          121.668816,
          24.980711
        ]
      },
      "properties": {
        "id": "NTPC-28",
        "name": "石碇區公所",
        "operator": null,
        "address": "新北市石碇區石崁路25號",
        "city": "新北市",
        "district": "石碇區",
        "station_type": "公務機關-區公所",
        "operational_status": "良好",
        "fee_applicable": "N",
        "open_to_public": "Y",
        "plug_type": "充電箱",
        "connector_count": "2",
        "coordinate_accuracy": "行政區級近似座標"
      }
    },
    {
      "type": "Feature",
      "geometry": {
        "type": "Point",
        "coordinates": [
          121.451974,
          25.02017
        ]
      },
      "properties": {
        "id": "NTPC-29",
        "name": "新莊地政事務所",
        "operator": null,
        "address": "新北市新莊區中華路一段3號",
        "city": "新北市",
        "district": "新莊區",
        "station_type": "公務機關-地政",
        "operational_status": "良好",
        "fee_applicable": "N",
        "open_to_public": "Y",
        "plug_type": "插頭式",
        "connector_count": "2",
        "coordinate_accuracy": "行政區級近似座標"
      }
    },
    {
      "type": "Feature",
      "geometry": {
        "type": "Point",
        "coordinates": [
          121.371226,
          24.878256
        ]
      },
      "properties": {
        "id": "NTPC-30",
        "name": "三峽區清潔隊",
        "operator": null,
        "address": "新北市三峽區隆恩街243號",
        "city": "新北市",
        "district": "三峽區",
        "station_type": "公務機關-環保局",
        "operational_status": "良好",
        "fee_applicable": "N",
        "open_to_public": "Y",
        "plug_type": "充電座",
        "connector_count": "6",
        "coordinate_accuracy": "行政區級近似座標"
      }
    }
  ]
}